{"type":"FeatureCollection","features":[{"geometry": {"type": "LineString", "coordinates": [[110.76134693050918, -6.997237734296232], [110.76061504958903, -6.99706272453728], [110.76003542067244, -6.996925527169632], [110.7595084792384, -6.996813247335553], [110.75907398002191, -6.996744574043421], [110.758806900488, -6.996719306625095], [110.75848953073536, -6.996666489207564], [110.75830030516791, -6.9966376713445335], [110.75768472092192, -6.996548799251445], [110.75740208170049, -6.996503179170429], [110.75706793797572, -6.996462319137933], [110.75687872064469, -6.9964179436423555], [110.75641885584383, -6.996300429556713], [110.75626436142707, -6.99627761234092], [110.75606075233372, -6.996270326698956], [110.75578048155378, -6.99627736157976], [110.75524026948293, -6.996352472988349], [110.75437904193237, -6.99647648099553], [110.75413228536569, -6.99652541678744], [110.75409635367811, -6.99652539802027], [110.75382930096065, -6.99644986651035], [110.75335866691404, -6.996314393367398], [110.75241619061168, -6.996064985613551], [110.75171082933667, -6.9958815194618165], [110.75129407117299, -6.995789153803881], [110.7505168431442, -6.995614024804338], [110.74968093448038, -6.995425699678449], [110.74908932994605, -6.995296141498071], [110.74828575514479, -6.995118601434833], [110.74794683473752, -6.99505499519064], [110.74768694393364, -6.995028528667009], [110.74740668037606, -6.995023591618645], [110.74728653292205, -6.995018968388488]]}, "type": "Feature", "id": 0, "properties": {"Jenis_ke_1": "tidak rusak", "Panjang": 1.58528272651, "Name": "108.Jalan Karangrejo - Mangunrejo", "koordY": 6.997047, "koordX": 110.760475, "OK_TOK": "OK", "Skor_Kerus": 0.0, "Length": 1585.28272651, "No_Ruas": 108}},{"geometry": {"type": "LineString", "coordinates": [[110.69876839522702, -6.956932345234838], [110.69873215468144, -6.956971256331386], [110.69856605450535, -6.957156596580916], [110.6984581830589, -6.957291155962876], [110.69842215717402, -6.957443711505625], [110.69835006140958, -6.957817632455858], [110.69816812943726, -6.959526395466009], [110.69804251803967, -6.961182539648433], [110.69796534648474, -6.962001028947708], [110.69780080247331, -6.964604929344911], [110.69768946431812, -6.966409472088882], [110.69760722737038, -6.967653980722066], [110.69741411475546, -6.970713250616499]]}, "type": "Feature", "id": 1, "properties": {"Jenis_ke_1": "poor", "Panjang": 1.54136183247, "Name": "7.Jalan Dempet - Mintreng", "koordY": 6.965881, "koordX": 110.697686, "OK_TOK": "OK", "Skor_Kerus": 54.33, "Length": 1541.36183247, "No_Ruas": 7}},{"geometry": {"type": "LineString", "coordinates": [[110.7517487963985, -6.932756896031078], [110.75137334064726, -6.932567142305734], [110.75090400052856, -6.932369680189151], [110.75028236956689, -6.93209937820669], [110.7498839137528, -6.931924929012671], [110.74916935602918, -6.9316497898771665], [110.74856782522443, -6.931418748092639], [110.74818852190968, -6.931262497493535], [110.74777090671866, -6.931088036418785], [110.74751038366824, -6.930965355941398], [110.74740501861514, -6.930927962891357], [110.74724696163302, -6.930889584431649], [110.74663770761525, -6.9307724620112054], [110.74617311090228, -6.930669776518486], [110.74596716114398, -6.930614139571282], [110.74557827125813, -6.930472242212479], [110.74526027117116, -6.930340913512115], [110.74499877883244, -6.930241207812928], [110.74463957859152, -6.930118472836577], [110.74453518077827, -6.930064804563318], [110.74445569622331, -6.930003490785853], [110.74421438816535, -6.929783168161169], [110.7439338218011, -6.9295235725088995], [110.74372889601518, -6.9293473078112635], [110.74356801336491, -6.929220849514135], [110.7434320129473, -6.929144187316301], [110.7431666864088, -6.9290502227314965], [110.74292626073417, -6.928971589230402], [110.74269064143485, -6.928863280054997], [110.74241190732957, -6.928760691560833], [110.74206133441547, -6.928632215209181], [110.74179504937798, -6.928540164076471], [110.74161879721149, -6.928490285582955], [110.74129597029406, -6.928430753670685], [110.7409788906552, -6.928373139393557], [110.74082658282602, -6.928335719336596], [110.74072505265492, -6.92829545485313], [110.7403860000862, -6.928124859746069], [110.74012644659285, -6.927987815466384], [110.73973280258376, -6.927787511906721], [110.73945504570911, -6.9276523720247125], [110.73936979718944, -6.927621689781133], [110.73924622455603, -6.92759577330063], [110.73912934767615, -6.927589007657174], [110.73883020682818, -6.927577355083988], [110.73861346801583, -6.927546121766957], [110.73812610354183, -6.927478838358935], [110.73797164978859, -6.927424901768916], [110.73773940119737, -6.92728834995091], [110.73746045508764, -6.927139805241873], [110.73721264599018, -6.9269900808877285], [110.7370797675367, -6.926901451657199], [110.73692893259653, -6.926800845460533], [110.73674939315529, -6.926634404854295], [110.73652915528693, -6.926435630746897], [110.73645374126392, -6.926379344075554], [110.73635798962354, -6.926285948433117], [110.73613898553717, -6.926022553068922], [110.7360312925384, -6.925868119066439], [110.73594989827576, -6.925798665305677], [110.73583617973159, -6.925712439782734], [110.73564941586473, -6.925617796734229], [110.73542912292224, -6.925519544862126], [110.73523636350541, -6.925439258713111], [110.73502801876474, -6.925390077987095], [110.7348328309791, -6.925369625292681], [110.73463164748475, -6.925363529564657], [110.73421249753703, -6.92538244265479], [110.73408076806234, -6.925382369006373], [110.73395384149096, -6.925359560722749], [110.73331087377244, -6.925160548484706], [110.73266313734972, -6.924924435041189], [110.73209440270043, -6.92475298700177], [110.73184776577692, -6.924653521969138], [110.73137008123126, -6.924417502665636], [110.7309774270703, -6.924173154110451], [110.73058597900369, -6.923914445538982], [110.73011072833528, -6.923612607950154], [110.72960913864279, -6.923299984643082], [110.7291518256335, -6.923044827589515], [110.72852573475181, -6.922660330342468], [110.72828510449433, -6.922530949480011], [110.72836068045122, -6.922301226458262], [110.72848663884048, -6.921920748114459], [110.72854541702468, -6.921747260312872], [110.72858976463785, -6.921679073775401], [110.72866525828596, -6.921592954512899], [110.72876231360202, -6.92149607723923], [110.72885457875802, -6.921399197213947], [110.72894327996035, -6.92125205378117], [110.72902720873346, -6.921073793436837], [110.72908601116912, -6.920857224399802], [110.7291508100563, -6.920625101677263], [110.72927672846356, -6.920312834880439], [110.72940980392082, -6.920049636772388], [110.72962803157586, -6.919561507567673], [110.72978039696895, -6.919069750748698]]}, "type": "Feature", "id": 2, "properties": {"Jenis_ke_1": "tidak rusak", "Panjang": 3.29676392877, "Name": "102.Jalan Harjowinangun - Kramat", "koordY": 6.932381, "koordX": 110.75095, "OK_TOK": "OK", "Skor_Kerus": 0.0, "Length": 3296.76392877, "No_Ruas": 102}},{"geometry": {"type": "MultiLineString", "coordinates": [[[110.7122387455021, -6.928284620756687], [110.71251482577303, -6.928406611572589], [110.71293524873313, -6.928603157757376]], [[110.73018780888562, -6.934995595556152], [110.73062368682255, -6.935107243541642], [110.73135172709753, -6.935247430371287], [110.73204046875233, -6.935421101485037], [110.73282596675372, -6.935608229094879], [110.73375707880696, -6.935814584279564], [110.73437590151572, -6.935957577365168], [110.73494491062293, -6.936091925619861], [110.73574956734625, -6.936287675399701], [110.73664715294129, -6.936489219550627], [110.73727364569552, -6.936625511660847], [110.7381386603652, -6.936824162932925], [110.73880155123238, -6.936976748240986], [110.73979588340254, -6.9372147194068985], [110.74072986740474, -6.937437337816538], [110.74105940306679, -6.9375035754883605], [110.74124619397958, -6.93755920419227], [110.74189854578307, -6.937716566297723], [110.74213899179321, -6.937765522311017], [110.74261316716918, -6.937882577526509], [110.74331245755988, -6.9380533662039365], [110.74407881160278, -6.938226104751466], [110.74478672821768, -6.938392109144489], [110.74553870584555, -6.938577283317498], [110.74605407753305, -6.938698186675294], [110.74651293775177, -6.938793210588491], [110.74707429279259, -6.938921796290877], [110.74770845214586, -6.939066695165249], [110.74850262582751, -6.939253674217684], [110.74911868316958, -6.939397763843446]]]}, "type": "Feature", "id": 3, "properties": {"Panjang": 2.23195142876, "Name": "142. Jalan Surodadi - Kramat", "koordY": 6.939147, "koordX": 110.748053, "OK_TOK": "OK", "Skor_Kerus": 0.0, "Length": 2231.95142876, "No_Ruas": 142}},{"geometry": {"type": "LineString", "coordinates": [[110.72671457477918, -6.952444694436066], [110.72660582791052, -6.95279719952081], [110.7263474724229, -6.9535405613521135], [110.72613343215814, -6.954207715925142], [110.72591458359442, -6.9549045456621155], [110.7257168801572, -6.955484589879507], [110.72548844715702, -6.956185243213082], [110.72535594036917, -6.956683949621801], [110.72517829588517, -6.957366442400138], [110.72515812853797, -6.957447806073942], [110.72504380257529, -6.957984817194576], [110.72496314964302, -6.958281551130122], [110.72485468609185, -6.958622307316534], [110.72524033261135, -6.95873980763699], [110.72520182101687, -6.95906241471693], [110.72518248195296, -6.959366843131753], [110.7251699642784, -6.959474059887027], [110.72512868407401, -6.959614767442731], [110.72503366882286, -6.959895217943547], [110.72481096487951, -6.960623637389218], [110.72525932539749, -6.960678467314089], [110.72538674478082, -6.960692901644843], [110.7256406193554, -6.960732300575933], [110.7258006065055, -6.960760156682957], [110.72584083962745, -6.9607726256431475], [110.72580915775536, -6.960883660737609], [110.72576407352807, -6.960975540913779], [110.72570941324504, -6.961058799317015], [110.72563078143138, -6.961174593961147], [110.7255118591216, -6.961376527374277], [110.72543223904958, -6.961544018700789], [110.72537849221636, -6.961703866172251], [110.72532185154203, -6.961897219459554], [110.72524597963888, -6.962209273867593], [110.7252219439911, -6.962351906137219], [110.72519209785223, -6.962600801682119], [110.72515941412559, -6.962786509995679], [110.72508073060337, -6.962990381357355], [110.72497137360519, -6.963218168796459], [110.72490995874732, -6.963382798516975], [110.7248091698758, -6.963704411893722], [110.7246575022169, -6.96419544783259], [110.7246190962838, -6.964335199610426], [110.72457007124412, -6.964611847265279], [110.72446245493735, -6.965139288328123], [110.72437217104675, -6.965518349106591], [110.7242550435974, -6.9659251575551915], [110.72411876539151, -6.96631185028808], [110.72396999114092, -6.966767465372846], [110.72387883407272, -6.967000049879957], [110.72376753797538, -6.967264215374725], [110.72372629301289, -6.967342694539517], [110.72370130407448, -6.967475752546686], [110.72367722222833, -6.967695930560799], [110.7236752269552, -6.967830916718624], [110.72367209809656, -6.968265554921225], [110.72368132441619, -6.968871567218868], [110.72368287791156, -6.969490978011188], [110.72367201055621, -6.970051025401381], [110.72367743797382, -6.970599594025435], [110.72368955991169, -6.971169228401572], [110.72369207087124, -6.971789597051317], [110.72370711709783, -6.972274028362005], [110.72371157232978, -6.972846530285893], [110.7237352793057, -6.97326682374412], [110.72374363211816, -6.97372827455139], [110.72378267371035, -6.974140918111261], [110.72382744956369, -6.974578456289809], [110.72385307461616, -6.974995878770733], [110.72391211716864, -6.9756134083185195], [110.72395584426643, -6.976206037622798], [110.72395620839455, -6.976402295936134], [110.72396082315335, -6.976702669260647], [110.7239499354853, -6.9768881507290805], [110.72393430198638, -6.976997040895582], [110.72390908921757, -6.977102335371246], [110.72387788808233, -6.977207626341831], [110.72373872676432, -6.9776024544868145], [110.7234508543115, -6.978337057014606], [110.72316541916513, -6.97899866231235], [110.72298192224066, -6.979428168318877]]}, "type": "Feature", "id": 4, "properties": {"Jenis_ke_1": "good", "Panjang": 3.21313243834, "Name": "104.Jalan Baleromo - Jerukgulung", "koordY": 6.963072, "koordX": 110.724997, "OK_TOK": "OK", "Skor_Kerus": 9025.0, "Length": 3213.13243834, "No_Ruas": 104}},{"geometry": {"type": "MultiLineString", "coordinates": [[[110.68928258870802, -6.960630279266474], [110.689554302892, -6.9603020574853325], [110.69091346727467, -6.958685018150552], [110.69179562294326, -6.957601389307943], [110.6918771186774, -6.957512887056339], [110.69251953054639, -6.956761781309281], [110.69328420566612, -6.955843216697822], [110.69406086938834, -6.954900724559105], [110.69436771464548, -6.9545036203783175], [110.69486878518768, -6.953776353646453], [110.6950988972774, -6.95351083580125]], [[110.6882549341596, -6.961851368536984], [110.688264643696, -6.961840156486757], [110.68852870128781, -6.9615282078988]]]}, "type": "Feature", "id": 5, "properties": {"Jenis_ke_1": "tidak rusak", "Panjang": 1.06323126894, "Name": "109.Jalan Dempet - Doreng", "koordY": 6.953578, "koordX": 110.695014, "OK_TOK": "OK", "Skor_Kerus": 0.0, "Length": 1063.23126894, "No_Ruas": 109}},{"geometry": {"type": "LineString", "coordinates": [[110.70880137095456, -6.937780263548137], [110.70910643151001, -6.937911010146155], [110.70997705382666, -6.938320813010408], [110.7105172267773, -6.938601169698011], [110.71119672342809, -6.939003673620088], [110.711969598849, -6.939460802648267], [110.71256292924008, -6.939769910070621], [110.71307008889579, -6.939989930464478], [110.71419503543801, -6.940480297579288], [110.71531422911896, -6.940982146946757], [110.71635727983359, -6.941449483376294], [110.71741902179349, -6.941905340430244], [110.71835432512746, -6.942320911112504], [110.71948359183433, -6.942815576753611], [110.7199203564136, -6.943008263726761], [110.72063442936914, -6.943290147984107], [110.7210381694545, -6.943435425301755], [110.72130973778364, -6.943510258848879], [110.72195055976171, -6.943724604411642], [110.72242325384858, -6.943917310208062], [110.72260714843215, -6.944010760185064], [110.72317319108663, -6.944312658635706], [110.72351080927977, -6.944486616039377], [110.72360994273333, -6.944532627002915], [110.72381684322409, -6.944605985419947], [110.72439445781382, -6.944781517961339], [110.7248786650714, -6.94494981544598]]}, "type": "Feature", "id": 6, "properties": {"Jenis_ke_1": "good", "Panjang": 1.94837120568, "Name": "115.Jalan Kuwu - Kebonsari", "koordY": 6.9449, "koordX": 110.724648, "OK_TOK": "OK", "Skor_Kerus": 97.5, "Length": 1948.37120568, "No_Ruas": 115}},{"geometry": {"type": "LineString", "coordinates": [[110.70230896514204, -6.960042403277083], [110.7036565185525, -6.959684240776187], [110.70470341497277, -6.9594084587646465], [110.70563053378892, -6.959155337094736], [110.70648099714687, -6.958912936282788], [110.70755188214582, -6.9585737378652], [110.70814961594102, -6.9583790455410846], [110.70834967485222, -6.9582882200358345], [110.70908645502772, -6.957893764064072], [110.71007725264415, -6.957298417728548], [110.71082005753735, -6.956839341058453], [110.71111356971782, -6.956682753159149], [110.71121898564287, -6.956640933133729], [110.7113112065651, -6.956633809206096], [110.71145490822957, -6.956654240636078], [110.71160578320097, -6.956695020216008], [110.71201410079506, -6.956810151548823], [110.71214367964339, -6.956422501002555], [110.71234888501483, -6.955744099328936], [110.71255637294398, -6.9552499900397775], [110.71284538530227, -6.9546123265898965], [110.71307924576226, -6.954075151949623], [110.71330354945962, -6.953497283717736], [110.71355907374625, -6.952781814199067], [110.71381583102921, -6.952006510437722], [110.71395019229666, -6.951627238966805], [110.71417331196649, -6.95102304214642], [110.71429687687309, -6.950672484731208]]}, "type": "Feature", "id": 7, "properties": {"Jenis_ke_1": "good", "Panjang": 1.87591931125, "Name": "112.Jalan Botosengon - Kedungori", "koordY": 6.944661, "koordX": 110.723906, "OK_TOK": "OK", "Skor_Kerus": 91.0, "Length": 1875.91931125, "No_Ruas": 112}},{"geometry": {"type": "LineString", "coordinates": [[110.73900817160872, -6.96429657680963], [110.73826386958804, -6.964024275731978], [110.73764218638765, -6.96378842115736], [110.73702720633935, -6.963560228378038], [110.73612365366812, -6.9632294365978336], [110.73531781262183, -6.962928615259024], [110.73484125304576, -6.9627512371199405], [110.73458622399359, -6.962631424343317], [110.73444614848297, -6.9625463802072804], [110.73436235511289, -6.962473334615158], [110.73411816096247, -6.962254201793315], [110.73394578931311, -6.962098534214278], [110.73377459584991, -6.9619775714634695], [110.733646486891, -6.9619104842961255], [110.73337589006306, -6.961789465428329], [110.73282989277187, -6.961571358476125], [110.7321258276559, -6.961319653914233], [110.73146608858454, -6.961045236243399], [110.7306770506336, -6.960692958780076], [110.7303956752875, -6.960574325515454], [110.73003884057366, -6.96047120610388], [110.7296987666647, -6.960378866277521], [110.72933236152586, -6.960257790420457], [110.72887258486307, -6.960061268882162], [110.72820446963814, -6.959780858503049], [110.72752436448133, -6.9595255709396735], [110.72677601480656, -6.959236735516244], [110.7263143082775, -6.959067495136145], [110.72583439431241, -6.958904945271898], [110.72551684516414, -6.958799930570932], [110.72526393863951, -6.958745214454284]]}, "type": "Feature", "id": 8, "properties": {"Jenis_ke_1": "fair", "Panjang": 1.64454853518, "Name": "107.Jalan Kunir-Baleromo", "koordY": 6.951386, "koordX": 110.714028, "OK_TOK": "OK", "Skor_Kerus": 6922.0, "Length": 1644.54853518, "No_Ruas": 107}},{"geometry": {"type": "LineString", "coordinates": [[110.75784462436695, -6.919623055656093], [110.75737469337234, -6.920625351358142], [110.75668533330708, -6.92214780204514], [110.75596001794044, -6.92371810109092], [110.75549844040223, -6.924738051873567], [110.75477012923682, -6.926296380110346], [110.75415269642654, -6.927642349898153], [110.75406277645358, -6.927842750798254], [110.75311866259484, -6.929849727046091], [110.75236333404453, -6.9315157397345395], [110.75160802665886, -6.93313089116048], [110.75123938409396, -6.933878636013428], [110.75116445159453, -6.934040151315192], [110.75030730476179, -6.935727048850967], [110.74959401683189, -6.937117837136747], [110.74854202228389, -6.939238431752956], [110.74847308379498, -6.939384990958542], [110.74767583293648, -6.941003104197733], [110.74673470625658, -6.942920313890443], [110.74609628108503, -6.9442453172463745], [110.74551479417589, -6.945465638913382], [110.74493328967213, -6.946712885419918], [110.74435479539856, -6.947924231688411], [110.7437583259517, -6.949150526101202], [110.74310789775926, -6.950493468475947], [110.74286810358869, -6.9509959519112385], [110.74256526354223, -6.951812534362441], [110.74228632733633, -6.952715890213224], [110.74206134785585, -6.953499605355096], [110.74190536105306, -6.954044018231177], [110.74169539456194, -6.954746964142717], [110.74165639195513, -6.9548935384327235], [110.74108341939129, -6.956921629270267], [110.74091240907818, -6.95755877755915], [110.74038744001547, -6.959395421668338], [110.73988943146668, -6.96119917053201], [110.7396524143863, -6.962078613174552], [110.73917544280259, -6.96372979348495], [110.73862334338298, -6.965871577600954], [110.73821825098399, -6.967471936504114], [110.73797509279737, -6.968614647886327], [110.73774408614453, -6.9694402409797105], [110.73734202306355, -6.970965806769907], [110.73703599021756, -6.972096515420251], [110.73674495664872, -6.973173380754378], [110.7364088285994, -6.97457332884029], [110.73600067741054, -6.976260443519728], [110.73582655417349, -6.977083075209813], [110.73544540490946, -6.978665493223598], [110.73514226691766, -6.979954763852721], [110.73484665195423, -6.98113876897813], [110.73448642308624, -6.982778040542292], [110.73429430542895, -6.983642545495018], [110.73412009660788, -6.9846057878540355], [110.73393684004333, -6.985682711119027], [110.73370267030703, -6.986777555917352], [110.73354051887569, -6.987594209387589], [110.73347745671312, -6.987917281675009], [110.73336039454377, -6.988422819545469], [110.73325248787519, -6.9886232050681905], [110.733053569676, -6.9888747256694685]]}, "type": "Feature", "id": 9, "properties": {"Jenis_ke_1": "poor", "Panjang": 8.1747489889, "Name": "29.Jalan Cangkring - Karangrejo", "koordY": 6.920775, "koordX": 110.757322, "OK_TOK": "OK", "Skor_Kerus": 5127.0, "Length": 8174.7489889, "No_Ruas": 29}},{"geometry": {"type": "LineString", "coordinates": [[110.7082120678868, -6.965608417805822], [110.70888541208792, -6.964198787340361], [110.70943799333101, -6.963044555925976], [110.70993492882218, -6.962009001731598], [110.71028793529811, -6.961318006965501], [110.71033206910496, -6.9612184689554], [110.7103666347773, -6.9610978632483596], [110.71041673312642, -6.960646021826933], [110.71043041776714, -6.960594332971185], [110.71046398140209, -6.960545289008979], [110.7105286752675, -6.960509427736988], [110.71119943717056, -6.960361447411856], [110.71157914550615, -6.960262353306289], [110.7118414833915, -6.9601679742087565], [110.71240690364095, -6.959937355989658], [110.71266925429649, -6.959821435907888], [110.71277226610125, -6.959795171145779], [110.71287645733997, -6.959798824462829], [110.71299261102487, -6.959825222226354], [110.71325842944398, -6.959915135537116], [110.71340808404317, -6.959995404797325], [110.71355292279489, -6.96011755543949], [110.71376840782449, -6.960262485994868], [110.71381508337393, -6.960315168830438], [110.71382582649679, -6.960373813408701], [110.71381260475327, -6.9604527873162345], [110.71376580520611, -6.960604739337354], [110.71354020926707, -6.961333390346525], [110.71387188377871, -6.9614472771258935], [110.71411375213253, -6.961534782116727], [110.71441548834918, -6.961645060345914], [110.7148357757029, -6.961779343774817], [110.71515907034184, -6.961888437840898], [110.71540694392439, -6.9619484218045296], [110.71559852673612, -6.962011961889076], [110.71593378437191, -6.962143799847462], [110.71630376850436, -6.96228403527241], [110.716746768263, -6.962491329103536], [110.71704848927453, -6.9626291296906055], [110.71714068767561, -6.9626614956182165], [110.71721972143831, -6.962678296613582], [110.71729157728699, -6.962681929652615], [110.7174017624162, -6.96267720871143], [110.71748560605427, -6.962661701750438], [110.71755748409007, -6.962628237192961], [110.71760901523274, -6.962573219953237], [110.71766175615802, -6.962497859600664], [110.71768934463374, -6.962426074318301], [110.71773490331012, -6.9623447261904445], [110.71779603762559, -6.9622526170870405], [110.71785355971895, -6.962192816607719], [110.71792305668814, -6.962135416653023], [110.71802488398508, -6.9620876095265185], [110.71823092807129, -6.96200157019534], [110.71841061634493, -6.961928678738754], [110.7186705843557, -6.961791213379031], [110.71915698699186, -6.961515065609353], [110.71955115736186, -6.961262796570941], [110.71965300065146, -6.961187465078169], [110.7197368688153, -6.961130073355525], [110.7198518696482, -6.961082273621364], [110.71999321617776, -6.961038079539241], [110.72020522777417, -6.960985550335657], [110.72033459866194, -6.960940152370666], [110.72046277756205, -6.960885180095666], [110.72062092900502, -6.960776374155454], [110.72085815002455, -6.960623337053944], [110.72102949004167, -6.960489408128311], [110.72121880567846, -6.960336342587011], [110.7213422432169, -6.9601975985283895], [110.72139857616456, -6.9601222398331295], [110.7214201489788, -6.9600959252156525], [110.72145728177117, -6.960085176808636], [110.72155068540481, -6.960104378922614], [110.7219877404753, -6.960238665899779], [110.72221523835577, -6.960326158344872], [110.72250980841758, -6.960405313148317], [110.72282832974678, -6.960486875195731], [110.72298639984422, -6.9605156884791715], [110.72322829344115, -6.960562501197027], [110.72340672538209, -6.960587736162719], [110.72369654311441, -6.96060226585152], [110.72406303567381, -6.960571365617146], [110.72434927032161, -6.960569139065011], [110.7244881882697, -6.960581186941119], [110.72467500510022, -6.960604032920477], [110.72480373834568, -6.960624451654386]]}, "type": "Feature", "id": 10, "properties": {"Jenis_ke_1": "satisfactory", "Panjang": 2.50872331253, "Name": "113.Jalan Kedungori - Baleromo", "koordY": 6.961956, "koordX": 110.718314, "OK_TOK": "OK", "Skor_Kerus": 80.25, "Length": 2508.72331253, "No_Ruas": 113}},{"geometry": {"type": "LineString", "coordinates": [[110.7143326804421, -6.950630785142189], [110.71441722735563, -6.9504387663879], [110.71454679580306, -6.950061885189151], [110.71471597141823, -6.949541424247934], [110.71492711088716, -6.948940809817749], [110.71507228398566, -6.948502906295889], [110.71523064187822, -6.948045863491654], [110.71538181387982, -6.947588816298863], [110.71564334032611, -6.946838644632166], [110.71614958561277, -6.945402912246136], [110.71639195671128, -6.9446383681755925], [110.7164579401105, -6.944444542785592], [110.71667507567888, -6.943822390313867], [110.71693538017219, -6.943105724428656], [110.71720288576378, -6.942361538614848], [110.71737201541791, -6.941908091324686]]}, "type": "Feature", "id": 11, "properties": {"Jenis_ke_1": "tidak rusak", "Panjang": 1.02121140661, "Name": "114.Jalan Kedungori - Munteran", "koordY": 6.948944, "koordX": 110.714881, "OK_TOK": "OK", "Skor_Kerus": 1.0, "Length": 1021.21140661, "No_Ruas": 114}},{"geometry": {"type": "LineString", "coordinates": [[110.7220969258184, -6.951743476122165], [110.72226556878051, -6.951301515216031], [110.7224274876996, -6.950888749693669], [110.72257380310127, -6.9505346131101655], [110.7229048174344, -6.949722249576177], [110.72322142090012, -6.948975695660329], [110.72355529473352, -6.948184634411232], [110.7238603882586, -6.947456741703755], [110.72418707932944, -6.946657059471916], [110.72450368441429, -6.945900452188349], [110.7248980032278, -6.944952896817505], [110.72576301027465, -6.945180291697545], [110.72644263451915, -6.94540183396643], [110.72723430183913, -6.945713910090076], [110.72796130769358, -6.946013023497023], [110.72800010142952, -6.946027406125828], [110.72802453313575, -6.946025984104104], [110.72805184153796, -6.946020255619629], [110.7280748509802, -6.945992984110041], [110.7286203546309, -6.944529974645545], [110.72916295592007, -6.943110043802417], [110.72967103806576, -6.941734609628237], [110.7302539187629, -6.940231409881924], [110.73053601861504, -6.939476214253614], [110.73105992981752, -6.938049089699685], [110.73166874832744, -6.936405170593932], [110.7319983311987, -6.935536553610951], [110.7320487085056, -6.935395850289863], [110.7322141931733, -6.935005341220115], [110.73249197447984, -6.9342515776309765], [110.73287915682947, -6.933170458581328], [110.7332490400152, -6.93218267189779], [110.73343037542485, -6.931711753006318], [110.73348074379548, -6.931585409861244], [110.73378731538962, -6.930736882844601], [110.7341125740857, -6.92987687770403], [110.73425792567102, -6.929505024936493], [110.73445941235745, -6.928972367115415], [110.73468682180892, -6.928339200919668], [110.7350912417468, -6.927252344893534], [110.7354711930742, -6.926231532596536], [110.73568132077288, -6.925660105827742]]}, "type": "Feature", "id": 12, "properties": {"Jenis_ke_1": "fair", "Panjang": 3.58469942784, "Name": "103.Jalan Kebonsari - Kramat", "koordY": 6.931997, "koordX": 110.733269, "OK_TOK": "OK", "Skor_Kerus": 69.0, "Length": 3584.69942784, "No_Ruas": 103}},{"geometry": {"type": "LineString", "coordinates": [[110.7766332110444, -6.930187950786675], [110.77649209054424, -6.930573238145596], [110.77586973389276, -6.932317737408304], [110.77517542830164, -6.934252477214503], [110.77444877726657, -6.936197970624383], [110.7737472965716, -6.9380860328705625], [110.77305294913673, -6.9400710300222945], [110.77257088038448, -6.9414063185262425], [110.77201324498385, -6.942982107112816], [110.77130097757436, -6.944845028652686], [110.77069659250475, -6.9464925947302065], [110.769451816363, -6.94992054013698], [110.7688510071914, -6.951575285037535], [110.76812063832188, -6.953664367934163], [110.76730397927469, -6.955864700074496], [110.7665772832491, -6.957763506194813], [110.76619595167212, -6.9587470057871], [110.76529293221719, -6.961173467070715], [110.76474606902998, -6.962663087179198], [110.76413800238412, -6.964393212628267], [110.76345803812652, -6.966191512947345], [110.76307304572919, -6.967282710380371], [110.76298098014837, -6.9675972129263135], [110.76267859636856, -6.968742302804451], [110.76262455388415, -6.969036663776436], [110.76261729751998, -6.969176673988599], [110.76260639941539, -6.969413615039394], [110.76251264440938, -6.970084916403035], [110.7621127584084, -6.972199283246959], [110.76181367023189, -6.973922379619771], [110.76161549623806, -6.975028029761656], [110.76144972013957, -6.9760116327920025], [110.76117587246091, -6.977548056020963], [110.76096324835572, -6.978800892284135], [110.76078308255374, -6.979813208318761], [110.76054163145582, -6.98122399383369], [110.76039394001795, -6.9819634787149525], [110.76027860576501, -6.982663488898377], [110.76021724579515, -6.983209152331063], [110.76020272359708, -6.983503532829974], [110.76028850765225, -6.984386740067858], [110.76034557654155, -6.985212491140029], [110.76043506562107, -6.985876704347465], [110.76055999268782, -6.9875102613556415], [110.7607029353032, -6.98904689482], [110.76083152626211, -6.990544029840599], [110.76092086531594, -6.991506220679699], [110.76100658598477, -6.992518670968269], [110.76107795077722, -6.99349880307451], [110.76115656229929, -6.994360465690125], [110.76121718089694, -6.9952759705652445], [110.76122420673131, -6.995591902448671], [110.76122409000823, -6.995821668438146], [110.76124194458762, -6.996040673256042], [110.7613029226739, -6.996248929654582], [110.76132793264549, -6.996528969700031], [110.7613778214036, -6.997347536504467], [110.76140596887758, -6.998525101675804], [110.76151638986758, -7.000431497561357], [110.76158042231938, -7.001702423212523], [110.7616481156524, -7.002840517192942], [110.76170863916525, -7.0039462966464106], [110.76181903640875, -7.005902953398292], [110.76190802595565, -7.007561621441754], [110.76198635452707, -7.008986927949885], [110.76208625766004, -7.01038352455948], [110.76215016463817, -7.011905756091313], [110.76218099754105, -7.01251489068569], [110.76230988531916, -7.013443593095548], [110.76250586559871, -7.014338821860997], [110.76286952004186, -7.015262855980428], [110.76349173317385, -7.016507735033966], [110.76389865582216, -7.017144582837296], [110.76428831081218, -7.017584564927715], [110.76439604460069, -7.0177162557214015], [110.76442895040094, -7.017782090589953], [110.76444389254459, -7.017841932954956], [110.7644228983314, -7.017907740770864], [110.76438094449158, -7.017970546320989], [110.76430415706659, -7.018049549624302]]}, "type": "Feature", "id": 13, "properties": {"Jenis_ke_1": "fair", "Panjang": 10.0832026677, "Name": "33.Jalan Karanganyar - Merak", "koordY": 6.938525, "koordX": 110.773581, "OK_TOK": "OK", "Skor_Kerus": 64.0, "Length": 10083.2026677, "No_Ruas": 33}},{"geometry": {"type": "LineString", "coordinates": [[110.71247364268652, -6.92752888413536], [110.7120631334029, -6.9286973510251215], [110.7112858365934, -6.930811442737998], [110.71025659369896, -6.933664937541641], [110.70949009977637, -6.935710820116935], [110.70876671362366, -6.937753137369835], [110.70818364494332, -6.939458071129357], [110.70792458844153, -6.940075406872178], [110.707265961797, -6.941949026676066], [110.70700323881302, -6.942681242271403], [110.70688813101391, -6.942907346643123], [110.7058990979885, -6.944561764377864], [110.70473742128162, -6.946510459203242], [110.7042301314229, -6.947644610041303], [110.70372638463007, -6.948854154184585], [110.70350690499464, -6.949363809007585], [110.703345064946, -6.949625783927172], [110.70204682882468, -6.951588745593513], [110.70041077429025, -6.953680732524396], [110.69967714462655, -6.95477165314272], [110.69897597054155, -6.95566872860659], [110.69888966690571, -6.955787146454954], [110.69883211282713, -6.955894812325769], [110.69862710567142, -6.956232149628216], [110.69843566768166, -6.95653120125699]]}, "type": "Feature", "id": 14, "properties": {"Jenis_ke_1": "fair", "Panjang": 3.58755792635, "Name": "9.Jalan Gajah-Dempet", "koordY": 6.949536, "koordX": 110.703339, "OK_TOK": "OK", "Skor_Kerus": 69.0, "Length": 3587.55792635, "No_Ruas": 9}},{"geometry": {"type": "LineString", "coordinates": [[110.72035890069098, -6.924166336467824], [110.72097816456578, -6.9244625763711545], [110.72122036559576, -6.9239541217250515], [110.72125755943838, -6.923834473714692], [110.7214795855909, -6.923012472157316], [110.72161764697917, -6.922423777463729], [110.72188298668223, -6.921253561759118], [110.72196821151758, -6.920911355850948], [110.72204146934774, -6.920554782547265], [110.72209798338295, -6.920161101795082], [110.7221112205535, -6.920051013274684], [110.72211962632805, -6.92001152713667], [110.72214119718853, -6.919985212367728], [110.72216754695565, -6.919978047562038], [110.72221424416857, -6.919988845108675], [110.72268832546128, -6.920227264599362], [110.72382205833951, -6.920786782154228], [110.72509105457279, -6.921450488052286], [110.72635048246714, -6.922099824796853], [110.72689758932559, -6.9223873468845945], [110.72720765607787, -6.922551472519563], [110.72734055131619, -6.9226054001544215], [110.72747825113572, -6.922634199831422], [110.72759440910112, -6.922639053158033], [110.72766747302849, -6.92261396431739], [110.72783404188156, -6.922418997740121], [110.72787717910379, -6.922373547862573], [110.72792029369987, -6.922367589029292], [110.72795861405343, -6.922368807643468], [110.72818368579482, -6.922481425991633], [110.72826554288324, -6.922523805979406]]}, "type": "Feature", "id": 15, "properties": {"Jenis_ke_1": "tidak rusak", "Panjang": 1.35274809063, "Name": "110.Jalan Jatisono - Kramat", "koordY": 6.924267, "koordX": 110.721072, "OK_TOK": "OK", "Skor_Kerus": 0.0, "Length": 1352.74809063, "No_Ruas": 110}},{"geometry": {"type": "LineString", "coordinates": [[110.76101009257754, -6.978355291127956], [110.75969962313168, -6.977828078207875], [110.75942948709199, -6.977711142789207], [110.75905597092809, -6.97740076791804], [110.75805607312098, -6.97662096619045], [110.7568971902138, -6.975720453358254], [110.75565212335435, -6.974735645617822], [110.75447218679868, -6.973804480697793], [110.75345123447211, -6.973007426214927], [110.75255288190229, -6.972294681436728], [110.75172923073221, -6.97164898940583], [110.75027540547495, -6.970491733745369], [110.74899395780507, -6.969506889968651], [110.74806112433258, -6.968797948133836], [110.74797682702824, -6.968765352993281], [110.74771625076801, -6.968703943011729], [110.74640374510517, -6.96847921865807], [110.74524836218981, -6.968273722586219], [110.7443210035341, -6.968085579578846], [110.74352775845057, -6.967941546053541], [110.74181095526086, -6.967672551063287], [110.74034323545094, -6.967457298852439], [110.738724150461, -6.967213237750751], [110.73833327459748, -6.967147921198545]]}, "type": "Feature", "id": 16, "properties": {"Jenis_ke_1": "tidak rusak", "Panjang": 2.87510086733, "Name": "106.Jalan Brakas - Kunir", "koordY": 6.977994, "koordX": 110.760189, "OK_TOK": "OK", "Skor_Kerus": 0.0, "Length": 2875.10086733, "No_Ruas": 106}},{"geometry": {"type": "LineString", "coordinates": [[110.70350279601494, -6.949429099917683], [110.70366922695213, -6.9494854486827204], [110.70385482325344, -6.949535825892893], [110.7039554140471, -6.949547855694055], [110.70436377723884, -6.949576831309067], [110.70554378069657, -6.949706858931437], [110.70689398861825, -6.949845315954627], [110.7085794960635, -6.950031843307168], [110.71034285464437, -6.950209437095666], [110.71193555112484, -6.950395895871096], [110.71381267418953, -6.9505914964408175], [110.7143365945041, -6.950642672181054], [110.71580353724666, -6.950844000940722], [110.71771055441661, -6.951123372876719], [110.71927628691284, -6.95135167552031], [110.72083004506844, -6.9515799659906925], [110.72216825512392, -6.951775215897872], [110.72395554280247, -6.952015600094914], [110.72518297528313, -6.952213768757392], [110.72661699979176, -6.952406070065543], [110.72748520028217, -6.952520256569326], [110.7295538896909, -6.9528355752521165], [110.73151182360041, -6.953114921303118], [110.73341587098746, -6.953388245528595], [110.736394669512, -6.953856625018303], [110.73789453544025, -6.954117739318052], [110.74042428434777, -6.954502076138479], [110.74254087823239, -6.954853265927248], [110.74417550111387, -6.955081524597198], [110.74624128893528, -6.955271116228016], [110.74804660638117, -6.955442609890249], [110.74958547585219, -6.955575063148662], [110.75036987489258, -6.955653262795593], [110.7514386945964, -6.955758536284129], [110.75252847006948, -6.955869801826723], [110.75504035003452, -6.9561164314908455], [110.75761509899054, -6.956381030604524], [110.75998926175775, -6.956621580160313], [110.76223768748015, -6.956841112501464], [110.76484538039391, -6.95710568909789], [110.76575254033999, -6.957186916142677], [110.76599803844623, -6.957216955073696], [110.76648303334058, -6.95730395535867], [110.76662481278778, -6.957350441945982], [110.76668220392702, -6.957373462201026]]}, "type": "Feature", "id": 17, "properties": {"Jenis_ke_1": "satisfactory", "Panjang": 7.03750697519, "Name": "8.Jalan Dempet - Luwuk", "koordY": 6.951097, "koordX": 110.717567, "OK_TOK": "OK", "Skor_Kerus": 83.0, "Length": 7037.50697519, "No_Ruas": 8}},{"geometry": {"type": "MultiLineString", "coordinates": [[[110.72367051498028, -6.9154303187247885], [110.72356601662447, -6.9156886837806875], [110.72346531678097, -6.915875310310957], [110.72317880747737, -6.916395707755154], [110.72368403792913, -6.9166054235095595], [110.72433772847786, -6.9168714695686315], [110.72490042704169, -6.91710515131634], [110.72532536700271, -6.917276184564206]], [[110.7281692603556, -6.9184254172274535], [110.72820840933528, -6.918441370845344], [110.72903690807739, -6.918769738770856], [110.72981274210848, -6.919053797529179], [110.73081963438628, -6.919452868926704], [110.7315619386095, -6.919739299340478], [110.7321737342317, -6.9199885575130295], [110.73277595299209, -6.920233022745216], [110.73371220968184, -6.920608114528748], [110.73436352610574, -6.920857392077584], [110.73480890949719, -6.921032358651474], [110.73561228419706, -6.9213343740419075], [110.73618218452388, -6.921558473224891], [110.7370035154308, -6.9218760533785995], [110.7376775945361, -6.922114568792126], [110.73807748735854, -6.922265573303683], [110.73845942337141, -6.922405797317064], [110.73901736292848, -6.9226083460172365], [110.73933704479607, -6.9227174209877855], [110.73966870085354, -6.922828895701578], [110.74007937147168, -6.922982297869714], [110.74050800409334, -6.9231381028912855], [110.74083725783903, -6.923263935898791], [110.74094860714811, -6.923303487655579], [110.74128744664097, -6.923419751979326], [110.74162867812628, -6.9235420008669], [110.74212316335726, -6.923721774236624], [110.74285470897603, -6.923998608046192], [110.7435563286447, -6.924253884018987], [110.74449859851777, -6.924613401256275], [110.7449356137562, -6.924775190388422], [110.74497512358501, -6.92479196538237], [110.74499307255091, -6.9248183024144545], [110.74499304620365, -6.924867367113074], [110.74495945080109, -6.924987019127199], [110.74486704984896, -6.9253411928460284], [110.74481414128287, -6.9257444524432445], [110.74479129534996, -6.925916765016862], [110.74476248998653, -6.926036419578326], [110.74464611202589, -6.926438448361628], [110.74453573059883, -6.926823726522399], [110.74449255134046, -6.926949356835303], [110.7444313985613, -6.927094124683171], [110.74439064720316, -6.927158724581597], [110.74458216701981, -6.927321578740419], [110.74470068165377, -6.927400624612844], [110.74484315498658, -6.92746532291534], [110.74504071167114, -6.927537230924112], [110.74536639378913, -6.927631944805784], [110.74579625308151, -6.927744664694092], [110.7459387362848, -6.9277914121779105], [110.74617938006037, -6.927910014060876], [110.74639247842536, -6.928032191230879], [110.7466582671361, -6.928157986495624], [110.74695637578499, -6.928310126230271], [110.74728438832747, -6.928528100202876], [110.7476973941771, -6.928808347502251], [110.74780394438669, -6.928868239070572], [110.7480170639497, -6.92895212113674], [110.74838702917754, -6.929099511293459], [110.74867796129428, -6.929237285778528], [110.7489449495056, -6.929361883737697], [110.74919039013913, -6.9294709130738275], [110.74951127102554, -6.929590752360745], [110.75001294414227, -6.929783685306618], [110.7505074355062, -6.929970630462475], [110.75113124556883, -6.930191150477484], [110.75152636333443, -6.9303349613215985], [110.75200887848794, -6.9305254887910595], [110.75265301355442, -6.930813032699922]]]}, "type": "Feature", "id": 18, "properties": {"Jenis_ke_1": "tidak rusak", "Panjang": 3.63704632582, "Name": "111.Jalan Gedangalas - Kramat", "koordY": 6.921594, "koordX": 110.736144, "OK_TOK": "OK", "Skor_Kerus": 0.0, "Length": 3637.04632582, "No_Ruas": 111}},{"geometry": {"type": "LineString", "coordinates": [[110.74985572600102, -6.936659987196856], [110.74991175639775, -6.936690173559584], [110.75134826469852, -6.937790216962912], [110.75383156211241, -6.939619590835531], [110.7549951651459, -6.9404775092042], [110.7554491217385, -6.94079941646585], [110.75550943168217, -6.940892790181108], [110.75557264251806, -6.94093446792439], [110.75611423491858, -6.941310989254219], [110.7569556714662, -6.941924610397739], [110.7572609788836, -6.942074354281065], [110.75759621388592, -6.942248047278247], [110.75808706808036, -6.942553456496436], [110.75935013099205, -6.943322979129939], [110.76032587481232, -6.943897889535505], [110.76153507604101, -6.944622503047157], [110.7624299952467, -6.945182409858179], [110.76296572953876, -6.945559638732589], [110.76438433985086, -6.946643360130748], [110.76530612627982, -6.947376796696976], [110.76742803872112, -6.949071174535206], [110.76852940963364, -6.949939322045647], [110.76878380146485, -6.950142885429017], [110.76890054032452, -6.950199785680055], [110.76925677429311, -6.95031065413904]]}, "type": "Feature", "id": 19, "properties": {"Jenis_ke_1": "tidak rusak", "Panjang": 2.6280623087, "Name": "105.Jalan Kramat - Sidomulyo", "koordY": 6.937161, "koordX": 110.750572, "OK_TOK": "OK", "Skor_Kerus": 0.0, "Length": 2628.0623087, "No_Ruas": 105}},{"geometry": {"type": "LineString", "coordinates": [[110.69663496295038, -6.939118395196251], [110.69673134492837, -6.939122981629198], [110.6968951607646, -6.939141754720673], [110.69701153900918, -6.939182037979866], [110.69708622892672, -6.939242399077591], [110.69721118018327, -6.939360233586813], [110.69730886079049, -6.939424917421009], [110.69741373878021, -6.9394709373855115], [110.69759763825076, -6.939545728365526], [110.6979410142069, -6.9396838063023125], [110.6982470215098, -6.939829040407323], [110.6985444146979, -6.9399613445444155], [110.6987096433561, -6.940018890838657], [110.69883464999607, -6.9400505629395095], [110.69893667691736, -6.940060679919441], [110.69908469707372, -6.9400607738079465], [110.69933186452245, -6.940079598924616], [110.699647981323, -6.9401472927187315], [110.70014083024071, -6.940262487146827], [110.70045692188076, -6.9403703893521165], [110.70058765351521, -6.940439401502153], [110.70072555431398, -6.940534266754672], [110.70093096308756, -6.940685179858004], [110.70109470268142, -6.940826014388871], [110.70125557815014, -6.9409510506866905], [110.70142796763834, -6.941048809528056], [110.70178999646757, -6.941237157701873], [110.70206153205685, -6.9413565191435245], [110.70228279568325, -6.9414342038951276], [110.70241355044423, -6.941467314718469], [110.70247676542742, -6.941494639018444], [110.70260605968775, -6.94156508576739], [110.70283447384881, -6.941698780092246], [110.70294366150368, -6.941749109676709], [110.70311752114439, -6.941795171609422], [110.70346092115912, -6.941900216897876], [110.70381870306468, -6.941988038509113], [110.70407303665273, -6.942039894472506], [110.70429719756638, -6.94208167925328], [110.70452280816052, -6.942103360348635], [110.70484326621568, -6.942126536394292], [110.70514358887662, -6.942175548333566], [110.7053217753962, -6.942197199573113], [110.70548847498591, -6.942203047233508], [110.70567384791097, -6.942223266768693], [110.70608193783224, -6.942296757562356], [110.70670700996372, -6.942401974981157], [110.70692111254067, -6.942442316284257], [110.70703461923516, -6.9424811593402165]]}, "type": "Feature", "id": 20, "properties": {"Panjang": 1.22761365252, "Name": "116.Jalan Mojodemak - Kuwu", "koordY": 6.939511, "koordX": 110.697456, "OK_TOK": "OK", "Skor_Kerus": 0.0, "Length": 1227.61365252, "No_Ruas": 116}}]}