{"type":"FeatureCollection","features":[{"geometry": {"type": "LineString", "coordinates": [[110.72520732947429, -6.912928849275729], [110.72556863520578, -6.913106408367258], [110.7260360232472, -6.9133140653673095], [110.72650341171122, -6.913521721922987], [110.72731654815662, -6.913892686203759], [110.72807653361937, -6.914233461974423], [110.72849244026006, -6.914424692462083], [110.7289083472464, -6.914615922598051], [110.72925027440237, -6.914761157073133], [110.72953618181197, -6.914864714359427], [110.7298048573885, -6.914946721112703], [110.7300907878628, -6.915010068987036], [110.73035947177061, -6.91507771504523], [110.73077901413872, -6.915195707643959], [110.73152470631376, -6.915408662477469], [110.732108040314, -6.915578443667373], [110.73263963720922, -6.915756811347441], [110.73285543216497, -6.915326120592133], [110.7331431782917, -6.914715965084049], [110.73340215036187, -6.914164670881654], [110.73370715688264, -6.91352293173526], [110.7339855433211, -6.912942927194542], [110.73426392905982, -6.912362922451091], [110.734587635117, -6.911683855994572], [110.73478764329793, -6.911210074158434], [110.73502654214744, -6.910571169228353]]}, "type": "Feature", "id": 0, "properties": {"Panjang": 1.5122401996, "Name": "126.Jalan Gedangalas - Sambiroto", "koordY": 6913310.0, "koordX": 110726027.0, "OK_TOK": "OK", "Skor_kerus": 0.0, "Jenis_keru": "tidak rusak", "Lenth": 1512.2401996, "No_Ruas": 126}},{"geometry": {"type": "LineString", "coordinates": [[110.74835138009252, -6.886377233966342], [110.74841291023931, -6.886412329729798], [110.7485206430225, -6.8864829918535255], [110.74862956068414, -6.886577588627845], [110.74882943572193, -6.886764379265826], [110.74910228718116, -6.887080452003358], [110.74943616732968, -6.887475538953336], [110.7497090290023, -6.887773660830503], [110.75010633732569, -6.888240582698301], [110.75057545403075, -6.888782933995439], [110.75113072654369, -6.88944380328755], [110.75159983001234, -6.890016071194426], [110.75192174717661, -6.890396789855646], [110.75219583125923, -6.890653026432308], [110.75238493353724, -6.8908374166698465], [110.75272726072319, -6.891117622367568], [110.75304566766185, -6.891342767143948], [110.75344069301221, -6.891605049044775], [110.75404281369156, -6.891994287780346], [110.7545898719243, -6.892345203014237], [110.75524826348551, -6.892757206541291], [110.75583365820052, -6.893077025767085], [110.75639750795187, -6.893380079471018], [110.75679794987629, -6.89359449334192], [110.75719839216907, -6.8938089068878154], [110.75772752847494, -6.894089802419371], [110.75825666541873, -6.894370697383194], [110.75865292942491, -6.894562370275058], [110.75901325829273, -6.894776762074192], [110.75908747458841, -6.894829454452396], [110.75923469224482, -6.894969542951919], [110.75961050190605, -6.895356267364556], [110.76004498030487, -6.8957585781212085], [110.76034419890084, -6.896054314055678], [110.76069249252146, -6.896393155722477], [110.76118681218055, -6.896863707555022], [110.76151835554849, -6.8971762127999945], [110.76166798574167, -6.89728399080447], [110.76183318852962, -6.897381006204454], [110.76216001084583, -6.897557084505638], [110.76249402540492, -6.897718805729766], [110.76308905149635, -6.897957245341153], [110.76377986197159, -6.898224452516609], [110.76450657801549, -6.89853116764085], [110.76518660640187, -6.898811531245855], [110.76585706167437, -6.8990799221749475], [110.76595428097373, -6.899112280850194]]}, "type": "Feature", "id": 1, "properties": {"Panjang": 2.43881715906, "Name": "120.Jalan Sari - Tambirejo", "koordY": 6886981.0, "koordX": 110749017.0, "OK_TOK": "OK", "Skor_kerus": 0.0, "Jenis_keru": "tidak rusak", "Lenth": 2438.81715906, "No_Ruas": 120}},{"geometry": {"type": "LineString", "coordinates": [[110.7335899260749, -6.870524690349272], [110.73360272855228, -6.870757336326874], [110.73361402382048, -6.8711163531893105], [110.73365240335397, -6.871864552564257], [110.73368511692144, -6.872466272458823], [110.73371634570103, -6.873154154046814], [110.73374186451994, -6.873774538460335], [110.73378738802849, -6.874595979877848], [110.73383291563462, -6.875410241060814], [110.73385052556472, -6.8759339873609076], [110.7338681355113, -6.876457733650421], [110.73389478775272, -6.876978313695555], [110.73389472948563, -6.877083025059183], [110.73386770763311, -6.8772266142391], [110.73378972546088, -6.87749582875513], [110.73366679991587, -6.877836820347809], [110.73335357739033, -6.878547187542014], [110.73304035390122, -6.879257554474387], [110.73269565267096, -6.880047185033546], [110.73235095026098, -6.88083681527448], [110.73204071641221, -6.881548678920008], [110.73173048160591, -6.882260542307503], [110.7314772012891, -6.882834816778306], [110.73122392034185, -6.883409091077679], [110.73091018375935, -6.884132918827966], [110.73059644619144, -6.884856746313707], [110.73028270763797, -6.885580573534798], [110.73007135782544, -6.886112986167611], [110.72986000752215, -6.88664539867685], [110.72958425400701, -6.887248579434484], [110.72930849977163, -6.8878517599907125], [110.72903274481592, -6.8884549403454916], [110.72871050752235, -6.889199703686078], [110.72838826918624, -6.889944466746944], [110.72810199941097, -6.890608472716418], [110.72781572880957, -6.891272478464751], [110.72756293475508, -6.891851736809899], [110.72731014006443, -6.892430994983166], [110.72705734473756, -6.893010252984547], [110.72678906730502, -6.8936144332125435], [110.72652078916869, -6.894218613247861], [110.7262465024083, -6.894858690648058], [110.72597221488402, -6.895498767844557], [110.72568144365138, -6.896169750116194], [110.72539067157014, -6.896840732159602], [110.72509989864014, -6.897511713974759], [110.7248001383577, -6.898192164253729], [110.72450037718845, -6.89887261429118], [110.72420741164467, -6.899547365567994], [110.7241968710001, -6.899575266999893], [110.72410685368803, -6.8997719677496425], [110.72384246729119, -6.90039167442388], [110.72357808018049, -6.901011380908266], [110.72332508430974, -6.901576076412672], [110.72307208781798, -6.902140771745694], [110.72278070789955, -6.902814344241058], [110.72248932712623, -6.903487916506599], [110.72217755473085, -6.904218918225579], [110.72186578134173, -6.904949919680137], [110.72154442774004, -6.905679718577444], [110.72122307311719, -6.906409517196465], [110.72096886477087, -6.906989767477758], [110.72071465578195, -6.9075700175845665], [110.72041488437574, -6.908247173398679], [110.72018944277458, -6.908778375366553], [110.71996400065066, -6.909309577195761], [110.71970419160887, -6.909905380401445], [110.71944438189219, -6.910501183424399], [110.71918457150049, -6.911096986264618], [110.71887999250247, -6.9117961572569415], [110.71857541257556, -6.912495327997913], [110.71827083171964, -6.9131944984874725], [110.71796624993456, -6.913893668725559], [110.71766166722023, -6.91459283871211], [110.7173714732269, -6.9152592274586135], [110.71708127838946, -6.915925615976668], [110.7167910827078, -6.916592004266188], [110.7165008861818, -6.917258392327135], [110.71616750306202, -6.918050407689332], [110.71583411878693, -6.918842422746457], [110.71553823227595, -6.919507011604546], [110.71524234490691, -6.920171600226369], [110.71494645667974, -6.920836188611868], [110.71465056759428, -6.92150077676099], [110.71439867430867, -6.922186333295126], [110.7141467802609, -6.922871889646405], [110.71389488545086, -6.923557445814755], [110.71359709753561, -6.9243865778428235], [110.71329930852865, -6.925215709612884], [110.71300151842978, -6.926044841124846], [110.71270372723882, -6.926873972378673], [110.71247364268652, -6.92752888413536]]}, "type": "Feature", "id": 2, "properties": {"Panjang": 6.78596414761, "Name": "9.Jalan Gajah-Dempet", "koordY": 6.875772, "koordX": 110.733819, "OK_TOK": "OK", "Skor_kerus": 6076.0, "Jenis_keru": "fair", "Lenth": 6785.96414761, "No_Ruas": 9}},{"geometry": {"type": "LineString", "coordinates": [[110.77351715821072, -6.87921894862119], [110.7730789865136, -6.879035405879995], [110.7726408151638, -6.878851862747312], [110.77208627687494, -6.878620874315219], [110.77154898756268, -6.878378405120758], [110.77093603070594, -6.878116751859615], [110.7703987292463, -6.877902044953177], [110.77061113383839, -6.877394787838379]]}, "type": "Feature", "id": 3, "properties": {"Panjang": 0.434840570736, "Name": "129.Jalan Wonoketingal - Mlekang", "koordY": 6878869.0, "koordX": 110772682.0, "OK_TOK": "OK", "Skor_kerus": 0.0, "Jenis_keru": "tidak rusak", "Lenth": 434.840570736, "No_Ruas": 129}},{"geometry": {"type": "MultiLineString", "coordinates": [[[110.7805197007736, -6.882084934708975], [110.78018006184816, -6.881922015351206], [110.77971173231545, -6.881689160424717], [110.77963262082248, -6.881864321665625], [110.77935072940684, -6.8824156335792415], [110.77905300790106, -6.883017199604909], [110.77883585129437, -6.88340770385722], [110.77875528762235, -6.88361445726834], [110.77855679325607, -6.884042307202147], [110.77827774311989, -6.884658241747569], [110.77800440326439, -6.885353161278558], [110.77775550718444, -6.886012190818414], [110.77743901279537, -6.886803304957645], [110.77713547524745, -6.887539855124462], [110.77688082629682, -6.888204625576132], [110.77677725171498, -6.888450141056048], [110.77644783829395, -6.889205347179049], [110.77630975706529, -6.8894924917174905], [110.77623204960958, -6.889732274971432], [110.77603211874063, -6.890148634558231], [110.77555230608476, -6.8898769968339275], [110.77482682173671, -6.889509027907771], [110.77440732951297, -6.889306347668613], [110.77374073780257, -6.888988666525132], [110.77316751959114, -6.888731342704334], [110.77281409736227, -6.888593314496936], [110.77234143179639, -6.888407839760388], [110.77169923712866, -6.888160533682446], [110.77115328989393, -6.887972150702135], [110.77034874652614, -6.887674503518051]], [[110.78228286530938, -6.883090920599134], [110.78226450932311, -6.883080422103477], [110.78149308611877, -6.882629151737014], [110.78122581155564, -6.882466596703625]], [[110.783738308966, -6.883893593248862], [110.78373555142649, -6.88389963604374], [110.78306610623295, -6.883538885181009], [110.78253863648045, -6.883237205864806]]]}, "type": "Feature", "id": 4, "properties": {"Panjang": 2.09358623445, "Name": "240.Jalan Cangkring B - Mlekang", "koordY": 6.889233, "koordX": 110.774197, "OK_TOK": "OK", "Skor_kerus": 5432.0, "Jenis_keru": "poor", "Lenth": 2093.58623445, "No_Ruas": 240}},{"geometry": {"type": "LineString", "coordinates": [[110.77370114303078, -6.878805592261531], [110.77350946104009, -6.879311225262587], [110.7733177786289, -6.879816858162975], [110.77302285121974, -6.880574232617286], [110.77272792284246, -6.881331606835286], [110.77243299349693, -6.882088980816915], [110.77211108060727, -6.882930709393668], [110.77178916654165, -6.883772437686946], [110.77153919394615, -6.884413153692299], [110.771289220656, -6.885053869527794], [110.77103921999458, -6.88575023194045], [110.77078921857485, -6.886446594178092], [110.77049547158965, -6.887221917733865], [110.77020172361479, -6.887997241052491], [110.76990797465005, -6.888772564133908], [110.76959144448023, -6.889607112854537], [110.769274913162, -6.890441661299685], [110.76904830442982, -6.891039903886255], [110.76882169510807, -6.891638146331515], [110.76859508519668, -6.892236388635404], [110.76834869681863, -6.89287530914156], [110.76810230775632, -6.893514229481573], [110.76783852040103, -6.89422374672499], [110.7675747322305, -6.894933263775436], [110.76731094324464, -6.895642780632869], [110.7670831284146, -6.89624820162911], [110.76685531298394, -6.896853622481949], [110.76662749695255, -6.897459043191325], [110.76638050195673, -6.8981027488840985], [110.76613350626893, -6.898746454409332], [110.76588650988904, -6.899390159766953], [110.76562751918789, -6.900072153574099], [110.76536852771729, -6.900754147196253], [110.76510953547712, -6.901436140633338], [110.76483975447138, -6.90213966922519], [110.76456997263888, -6.902843197616841], [110.7643001899795, -6.903546725808207], [110.76429118392316, -6.903568794545849], [110.76415327780005, -6.903478734308119], [110.76400937810739, -6.903884584805055], [110.76385581659778, -6.904455096790744], [110.76356997124611, -6.905187337371684], [110.76328412498292, -6.905919577728975], [110.76300065400008, -6.906572096999951], [110.76319192700001, -6.906688493999959], [110.76304283957103, -6.906942718571591], [110.76281622411265, -6.907521810019767], [110.76261117978788, -6.908067404395165], [110.76240613497474, -6.90861299865388], [110.76213753473051, -6.909333279660789], [110.76186893364118, -6.910053560466804], [110.76162672480488, -6.910678118077593], [110.76143487783266, -6.911168670073178], [110.76124303045013, -6.911659221967897], [110.76101582110154, -6.91221946393645], [110.76078861119883, -6.91277970576512], [110.76059527685408, -6.913247818407128], [110.76040194211562, -6.913715930948397], [110.76013417451084, -6.914356031845676], [110.75986640616075, -6.914996132550389], [110.75959863706527, -6.915636233062526], [110.75928241444257, -6.916381020313014], [110.75896619079602, -6.9171258072959665], [110.75877285428619, -6.917590927236017], [110.75857951738499, -6.918056047075359], [110.75831577602149, -6.918618363092045], [110.75805203401595, -6.919180678927679], [110.75784462436695, -6.919623055656093]]}, "type": "Feature", "id": 5, "properties": {"Panjang": 4.88441968482, "Name": "29.Jalan Cangkring - Karangrejo", "koordY": 6.888156, "koordX": 110.770125, "OK_TOK": "OK", "Skor_kerus": 6550.0, "Jenis_keru": "fair", "Lenth": 4884.41968482, "No_Ruas": 29}},{"geometry": {"type": "LineString", "coordinates": [[110.78629960210112, -6.908222440257255], [110.78590572080844, -6.908006856687976], [110.78542921932939, -6.907775678461463], [110.78513470973641, -6.907608007172837], [110.7846294831289, -6.907345700901865], [110.78437567985578, -6.907198391521971], [110.78427871169075, -6.9071337256119705], [110.78380108288148, -6.9067517605268085], [110.78337611423102, -6.9064368343583995], [110.7826865949958, -6.905912364051113], [110.78216466139476, -6.9055303771912495], [110.78160801613161, -6.9051160628661625], [110.78134346998455, -6.904898141445787], [110.78123572362206, -6.904837060109123], [110.78085979722965, -6.904649004932934], [110.78064905947141, -6.9046034332881545], [110.7803437154445, -6.904567391622227], [110.7800060436006, -6.904521761216752], [110.77963963146485, -6.904477314000005], [110.77919777408455, -6.904440011806442], [110.77903851542571, -6.904423184189052], [110.77876790393331, -6.904376387273817], [110.77851883788841, -6.9043499441836005], [110.77817877087358, -6.904305508086124], [110.7777608681051, -6.904258642077069], [110.77730584096388, -6.904216545188115], [110.77673107153757, -6.90416003137977], [110.77649757762754, -6.904124020897991], [110.77632396785205, -6.904067694422188], [110.77615754475045, -6.904007781145257], [110.7760174766116, -6.9039263395164205], [110.77581397533386, -6.903773065797052], [110.77562724580694, -6.903605439435939], [110.77545970839031, -6.9033696099122634], [110.77537234755964, -6.903251095085903], [110.77523707876841, -6.903150508232941], [110.77480616792575, -6.902758982804556], [110.7745954769573, -6.902617672231831], [110.77422675190535, -6.902404484568009], [110.77382929320918, -6.902179315967687]]}, "type": "Feature", "id": 6, "properties": {"Panjang": 1.57757750125, "Name": "123.Jalan Medini - Mlatiharjo", "koordY": 6907807.0, "koordX": 110785495.0, "OK_TOK": "OK", "Skor_kerus": 0.0, "Jenis_keru": "tidak rusak", "Lenth": 1577.57750125, "No_Ruas": 123}},{"geometry": {"type": "LineString", "coordinates": [[110.79189508231141, -6.8993276199673685], [110.79121894053884, -6.898882150255426], [110.79054280004632, -6.898436679615384], [110.78995476432141, -6.898061134416142], [110.78936672953593, -6.897685588514669], [110.7888974610309, -6.897364664205016], [110.78842819316506, -6.897043739448989], [110.78772141585968, -6.896568573066681], [110.78733642130572, -6.896315657592254], [110.78695142716556, -6.896062741817248], [110.78640937156877, -6.895706360182538], [110.78593052772173, -6.895384471402006], [110.7854344349473, -6.895075977505238], [110.78495270467253, -6.894784722130424], [110.78447097499563, -6.894493466284407], [110.78397009165333, -6.89419071293496], [110.78346920895723, -6.893887959076206], [110.7828198752428, -6.89351046283876], [110.7821168926981, -6.893140600189562], [110.7814943632318, -6.892809067899194], [110.78109210441855, -6.892615496215509], [110.78059214801695, -6.8923893289686236], [110.77981444118693, -6.892032831792055], [110.77921201754637, -6.891732898880904], [110.77860959468133, -6.8914329652305195], [110.77787978752075, -6.891080316631835], [110.77710401430562, -6.890695095139459], [110.77635379044312, -6.890304898109095], [110.77603833232365, -6.8901521705254], [110.77600298041902, -6.890209595781969], [110.77584114316716, -6.89059426044915], [110.77562321043531, -6.891094141364656], [110.77542372813262, -6.891572729486824], [110.77529234458018, -6.891874237264268], [110.77513602885712, -6.892228388261386], [110.77497011965461, -6.892611255583654], [110.77491929578346, -6.892720371089496], [110.77464022134319, -6.893366459918303], [110.77445224945541, -6.89380963050844], [110.77426235944957, -6.894256629552551], [110.77406479576412, -6.8947237295036645], [110.77382792520989, -6.895253039359014], [110.77365146656868, -6.895656005741909], [110.7734604057001, -6.896077378404235], [110.77322296185976, -6.896641964260958]]}, "type": "Feature", "id": 7, "properties": {"Panjang": 2.80976379936, "Name": "122.Jalan Sambung - Mlatiharjo", "koordY": 6.896567, "koordX": 6.896567, "OK_TOK": "OK", "Skor_kerus": 6750.0, "Jenis_keru": "fair", "Lenth": 2809.76379936, "No_Ruas": 122}},{"geometry": {"type": "LineString", "coordinates": [[110.73362715204634, -6.8706563749191725], [110.73370329810014, -6.870672213704185], [110.73393172990849, -6.870731218323153], [110.73420613090981, -6.87081035292766], [110.73455379361076, -6.870924711005155], [110.73527641202159, -6.8711685199455435], [110.73595282152871, -6.871393873147411], [110.73611922127049, -6.871465766941811], [110.73625807677774, -6.871544825732972], [110.73643643288582, -6.87164903696015], [110.7366016294602, -6.871731700250215], [110.7367213397928, -6.871786814343273], [110.73688176328905, -6.871839557361958], [110.73705775442325, -6.871889915467127], [110.73713916361115, -6.871916287584831], [110.73735345737293, -6.871992994044566], [110.73754739200464, -6.872075672770397], [110.73775687857399, -6.872184687382399], [110.73786461049788, -6.87224817155746], [110.73805015692238, -6.872342812519454], [110.73824168849887, -6.8724410467889125], [110.7384906767916, -6.872574016717276], [110.73864390585679, -6.872645902471573], [110.73874686078591, -6.872686646504831], [110.73882482428981, -6.872444955137589], [110.73891479247176, -6.872147025282184], [110.73908957611336, -6.8722165292329445], [110.73952770289326, -6.872445337784683], [110.73998858087094, -6.87267415829727], [110.7406409929244, -6.87299881831157], [110.74117849395978, -6.873250416539623], [110.7415747320976, -6.873444496272788], [110.7419099264677, -6.8735942648070685], [110.74236601646446, -6.873824277227223], [110.74289633427162, -6.874077066425564], [110.74328419129725, -6.8742723369925125], [110.74376710227041, -6.874506909965066], [110.74424354244678, -6.874751291972871], [110.74483611068368, -6.875036423301463], [110.74540353391241, -6.875321540552244], [110.74595779642138, -6.875587502924763], [110.74653360293145, -6.875872623325213], [110.74702202077137, -6.8761158122924355], [110.74759064344242, -6.876402124368911], [110.74807307781408, -6.876640522331262], [110.74839988520594, -6.876808232590842], [110.74879491373757, -6.877037010287586], [110.74931204573984, -6.877330473585223], [110.74980044777308, -6.87760956089242], [110.75048158113871, -6.87799286138405], [110.75089457428966, -6.87821925336446], [110.75128361375121, -6.878456402883979]]}, "type": "Feature", "id": 8, "properties": {"Panjang": 2.20822990224, "Name": "118.Jalan Gajah - Sari", "koordY": 6870905.0, "koordX": 110734496.0, "OK_TOK": "OK", "Skor_kerus": 0.0, "Jenis_keru": "tidak rusak", "Lenth": 2208.22990224, "No_Ruas": 118}},{"geometry": {"type": "LineString", "coordinates": [[110.70203030566898, -6.901606051884098], [110.70213385405708, -6.9016389583423985], [110.70253786939837, -6.901852820866705], [110.70294188511292, -6.902066683062521], [110.70348177675058, -6.902342259315004], [110.70402166903213, -6.902617834979981], [110.70456156195752, -6.902893410057377], [110.7050625444081, -6.903157591863743], [110.70556352743044, -6.903421773164621], [110.70610042998202, -6.903694951325334], [110.70663733316837, -6.903968128904614], [110.7071131796202, -6.904217932807038], [110.70758902658567, -6.904467736253118], [110.70810936964445, -6.90480061730037], [110.7086297134447, -6.905133497805797], [110.70828457371316, -6.905710005344988], [110.70793943312711, -6.906286512585389], [110.70754743883268, -6.906962107264084], [110.70715544339895, -6.907637701554563], [110.7067634468258, -6.908313295456763], [110.70637144911308, -6.908988888970571], [110.70607294583796, -6.909517645179021], [110.7057744418826, -6.910046401160773], [110.70547593724696, -6.910575156915781], [110.70526372173207, -6.91099147630035], [110.70501011743576, -6.911528037998968], [110.70475651254753, -6.912064599526293], [110.70443156218457, -6.9127513020875], [110.70410661085069, -6.913438004367468], [110.7037816585458, -6.914124706366094], [110.70347590536232, -6.914747396763423], [110.70317015135177, -6.915370086914118], [110.70302269591633, -6.915628481451989], [110.70336387735372, -6.915804608529595], [110.70385410145255, -6.916058015032792], [110.70434432608965, -6.91631142105082], [110.70488783141732, -6.916579818322003], [110.70543133737856, -6.916848214995714], [110.7059748439733, -6.917116611071912], [110.70657940318381, -6.9174197483957025], [110.70718396318956, -6.917722884980385], [110.70778852399057, -6.918026020825827], [110.70841222829259, -6.918357888388876], [110.70903593349011, -6.9186897551665085], [110.70965963958312, -6.919021621158606], [110.71032047160963, -6.919350517220525], [110.71098130457953, -6.919679412398372], [110.71165171106726, -6.92002087781436], [110.71232211854742, -6.920362342320894], [110.71299252702, -6.920703805917802], [110.71373596836929, -6.921074033289409], [110.71442945523015, -6.921375778460201], [110.71463299340257, -6.921445309041572]]}, "type": "Feature", "id": 9, "properties": {"Panjang": 3.57890655899, "Name": "51.Jalan Kuncir - Jatisono", "koordY": 6.902011, "koordX": 110.702837, "OK_TOK": "OK", "Skor_kerus": 0.0, "Jenis_keru": "tidak rusak", "Lenth": 3578.90655899, "No_Ruas": 51}},{"geometry": {"type": "LineString", "coordinates": [[110.71293524873313, -6.928603157757376], [110.71296593378328, -6.928617502884615], [110.71367563675983, -6.928953963494299], [110.71426562627207, -6.929223336080429], [110.71499639248145, -6.92958565610628], [110.71554998896215, -6.9298368155269365], [110.71619264889611, -6.93014642635187], [110.71675580997706, -6.930426310861872], [110.71715233465439, -6.9306017435531215], [110.71735250206996, -6.930708129390806], [110.71748944848522, -6.930798202477422], [110.71740985971348, -6.930917824886156], [110.71694491959495, -6.931402928562121], [110.71655664265637, -6.93185361260066], [110.717026033493, -6.931939097265998], [110.71758067281904, -6.932054310254294], [110.71845045525411, -6.932260658487402], [110.71915642913837, -6.93243914495882], [110.71967083569642, -6.932547630254241], [110.72025229275279, -6.932678173728275], [110.7207427509603, -6.932782814345229], [110.7213701735223, -6.932949763102522], [110.72168054979231, -6.93300259976158], [110.72194014122658, -6.9330697668665175], [110.72236066562415, -6.933169578106071], [110.72269210634332, -6.9332444456648545], [110.72330804712783, -6.933388408607992], [110.72379371327789, -6.933498787484858], [110.72462136014214, -6.933683080868531], [110.72532255022908, -6.9338586834897775], [110.72598542940884, -6.934016073181857], [110.72643852572625, -6.934122122494499], [110.72689162226237, -6.934228171382318], [110.72772597101087, -6.934424908961229], [110.72853254580275, -6.934606311485408], [110.72917627553181, -6.934747410755353], [110.72987076767505, -6.934914386730419], [110.73018780888562, -6.934995595556152]]}, "type": "Feature", "id": 10, "properties": {"Panjang": 2.26029518748, "Name": "142. Jalan Surodadi - Kramat", "koordY": 6928989.0, "koordX": 110713753.0, "OK_TOK": "OK", "Skor_kerus": 0.0, "Jenis_keru": "tidak rusak", "Lenth": 2260.29518748, "No_Ruas": 142}},{"geometry": {"type": "LineString", "coordinates": [[110.7586194283412, -6.918068395075084], [110.75906316078184, -6.918214627529564], [110.75950689350826, -6.91836085957892], [110.75998247661722, -6.918507575950173], [110.76068938377054, -6.918730518466042], [110.76131583222876, -6.918924698760539], [110.76174975120388, -6.919054159994098], [110.76221096543628, -6.919200866987896], [110.76255580175982, -6.919304434218125], [110.76290063824136, -6.919408001203155], [110.76341357929715, -6.9195690932469045], [110.76396532066296, -6.9197302039941855], [110.76452855016852, -6.9199085523104005], [110.76516506257722, -6.920099860527396], [110.76554007448897, -6.9202106207390734], [110.7657211163261, -6.920260971403782], [110.7660156586692, -6.920363075366424], [110.76632170379989, -6.9204522604136764], [110.76682746629342, -6.920604729063731], [110.7676217988319, -6.9208299780427724], [110.76841613216422, -6.921055225718728], [110.76895944435392, -6.921196102402141], [110.76950275688503, -6.921336978475011], [110.77029003985017, -6.921534815167805], [110.77107732351125, -6.921732650577796], [110.77161165440607, -6.921876511714467], [110.77214598564277, -6.92202037226075], [110.77260847723029, -6.922138767948698], [110.77307096906206, -6.922257163193958], [110.77351698431157, -6.9223979883314], [110.77396299983776, -6.922538813058449], [110.77454671328464, -6.922720091380607], [110.775130427198, -6.922901368999515], [110.77569617426023, -6.923091612715597], [110.77626192179488, -6.923281855771844], [110.77678875046489, -6.923470584026684], [110.77731557956989, -6.923659311709914], [110.77812677751609, -6.923949891333025], [110.77866007244214, -6.924142928704508], [110.77874053117698, -6.92417743119518]]}, "type": "Feature", "id": 11, "properties": {"Panjang": 2.32419068192, "Name": "26.Jalan Tanjunganyar - Wilalung", "koordY": 6918621.0, "koordX": 110760343.0, "OK_TOK": "OK", "Skor_kerus": 0.0, "Jenis_keru": "tidak rusak", "Lenth": 2324.19068192, "No_Ruas": 26}},{"geometry": {"type": "MultiLineString", "coordinates": [[[110.72458752200001, -6.913654898999914], [110.72431538767724, -6.914095115357764], [110.72411279447387, -6.914463581296735], [110.72386461554404, -6.914969641064339], [110.72375191372862, -6.91520293196418], [110.72367634657222, -6.915415900502062], [110.72367051498028, -6.9154303187247885]], [[110.72532536700271, -6.917276184564206], [110.72570138147674, -6.9174275254750714], [110.72617548938051, -6.917618671895091], [110.7266495976811, -6.917809817856383], [110.72726737633133, -6.91805788889904], [110.72771831816215, -6.918241653270751], [110.7281692603556, -6.9184254172274535]]]}, "type": "Feature", "id": 12, "properties": {"Panjang": 0.560200599365, "Name": "111.Jalan Gedangalas - Kramat", "koordY": 6.914511, "koordX": 110.724061, "OK_TOK": "OK", "Skor_kerus": 3938.0, "Jenis_keru": "very poor", "Lenth": 560.200599365, "No_Ruas": 111}},{"geometry": {"type": "LineString", "coordinates": [[110.76319192700001, -6.906688493999959], [110.76353666738996, -6.906865382347699], [110.76391376850285, -6.907088155964321], [110.76440461510671, -6.907345689901202], [110.76510015718699, -6.90776009233851], [110.76552993619978, -6.9080104148396515], [110.76595971567322, -6.908260736965906], [110.76646684355457, -6.908532756944097], [110.76697397202842, -6.908804776399102], [110.76742217642101, -6.909092204049719], [110.76778992407797, -6.909348956500673], [110.76825534185078, -6.909701492429185], [110.76872454395037, -6.910153595455727], [110.76927795857567, -6.91079721132278], [110.76947521685022, -6.910984949845816], [110.76983717459966, -6.911333604780523], [110.77006123623782, -6.911565394694347], [110.77022019702537, -6.911707161037646], [110.77063967975477, -6.911965851051164], [110.77121435943815, -6.912226529989259], [110.77189821059756, -6.9125753378965396], [110.77262424451895, -6.912862893777961], [110.77321618888428, -6.913085284095959], [110.77397672193787, -6.913353707130828], [110.77469255048267, -6.913618278380343], [110.77540837985389, -6.913882848576907], [110.77612421005148, -6.914147417720392], [110.77676883368201, -6.91440142144823], [110.77741345802477, -6.914655424322929], [110.7779249445363, -6.914854794591976], [110.77843643149157, -6.915054164323696], [110.77863182909677, -6.915134673680875], [110.77885978504233, -6.915245833694293], [110.77902068356815, -6.915349303584121], [110.77923712930026, -6.915491093694675], [110.77959147534816, -6.91574974584212], [110.77996592773613, -6.916035213190142], [110.7803403805776, -6.916320680254484], [110.78065067315615, -6.916548675700066], [110.78084029806654, -6.9166847085711485], [110.78115059729679, -6.91689930062317], [110.78123629836267, -6.916961646230937], [110.78134272311766, -6.917014080991609]]}, "type": "Feature", "id": 13, "properties": {"Panjang": 2.33255496799, "Name": "46.Jalan Tambirejo - Medini", "koordY": 6.910464, "koordX": 110.768964, "OK_TOK": "OK", "Skor_kerus": 5400.0, "Jenis_keru": "poor", "Lenth": 2332.55496799, "No_Ruas": 46}},{"geometry": {"type": "LineString", "coordinates": [[110.71469526582814, -6.921505399255799], [110.71549378905343, -6.921887623978046], [110.71610794603355, -6.922182378488764], [110.71689330089733, -6.922561002990354], [110.71753021492789, -6.922852179176426], [110.71826530976315, -6.923173330145903], [110.71895371311777, -6.9234753052614755], [110.7194900516169, -6.923741288813508], [110.72002639073513, -6.924007271781929], [110.72035890069098, -6.924166336467824]]}, "type": "Feature", "id": 14, "properties": {"Panjang": 0.691470645971, "Name": "110.Jalan Jatisono - Kramat", "koordY": 6.921896, "koordX": 110.715511, "OK_TOK": "OK", "Skor_kerus": 0.0, "Jenis_keru": "tidak rusak", "Lenth": 691.470645971, "No_Ruas": 110}},{"geometry": {"type": "LineString", "coordinates": [[110.75860379697457, -6.866109120804793], [110.75862855659078, -6.866399214424738], [110.75856131860647, -6.86676393608205], [110.75842889806614, -6.867215984303876], [110.75835045615699, -6.8675064688221665], [110.75827166151608, -6.867760663683292], [110.75817792842143, -6.868075909249987], [110.75814340464609, -6.8681524809098145], [110.75808589079121, -6.868229040965704], [110.75802838465845, -6.8682902832027874], [110.7579651377674, -6.868338119445954], [110.75788082050086, -6.868378286131413], [110.75777734094889, -6.86842610202676], [110.75771793053964, -6.8684643665400795], [110.75767959242354, -6.868506471151604], [110.75763740614406, -6.86858112416955], [110.75755302772747, -6.868741918549866], [110.75736314017436, -6.869174550709857], [110.75726533220755, -6.869371718037141], [110.75712534741474, -6.869624391042066], [110.7570448090689, -6.869767954720086], [110.756994926147, -6.869907704472828], [110.75683765952371, -6.870236957676688], [110.75675517983895, -6.870430303200241], [110.75666505615902, -6.870585350294687], [110.75659604278222, -6.870669563212406], [110.75645801595522, -6.8708379890145945], [110.7562720498835, -6.87109063835401], [110.75595376198196, -6.871594049386556], [110.7556374088075, -6.872059166636016], [110.7555031963139, -6.8722601444184885], [110.75542265016954, -6.872417110855042], [110.7552807133469, -6.872736797642429], [110.7550505459051, -6.873253656056097], [110.75487214641043, -6.873692037059341], [110.75471865807934, -6.874092130561335], [110.75465964857906, -6.874255668499861], [110.75457944895976, -6.874489191028499], [110.75454829161687, -6.874537043209577], [110.75448122348807, -6.874562139611681], [110.7544153668972, -6.874559712441115], [110.75433634919071, -6.8745369345490825], [110.7541759195871, -6.874490180794158], [110.75409809009257, -6.874485354027935], [110.75404898686222, -6.874503279370161], [110.75401424091405, -6.87454394945], [110.75399145003169, -6.874621723480084], [110.7539422692264, -6.87479043342616], [110.75387149426076, -6.87503811470494], [110.75376481335077, -6.875253466511739], [110.75370848424612, -6.875351567238773], [110.75362340108232, -6.875480767458136], [110.75355986706982, -6.875618355674677], [110.75346155917353, -6.875850465557412], [110.75337885834661, -6.876003601021735], [110.75326981425215, -6.876156722896108], [110.75295350839598, -6.876519160957453], [110.75261683167075, -6.876909112440842], [110.75230292151969, -6.8772679611539145], [110.75198421189539, -6.877644757702328], [110.75165711358703, -6.878033516695741], [110.75140309869141, -6.878343330988205], [110.75110210541054, -6.878728034323494], [110.7507618330747, -6.879118461169621], [110.75045606506634, -6.879472525965596], [110.75024039768785, -6.879722285068249], [110.75008799282394, -6.879898360196361], [110.74992887573768, -6.880086877474554], [110.749730461808, -6.880315583364591], [110.74968062871203, -6.880353851796034], [110.74945452552056, -6.880408303129995], [110.74917476740532, -6.8804818734824575], [110.74917757793419, -6.880602502608085], [110.74918419964084, -6.880762385585531], [110.74918318944727, -6.880861950736423], [110.74916298016907, -6.881038094807459], [110.7491216714616, -6.881261138566123], [110.7490918997749, -6.8814047272984595], [110.7490256808894, -6.881634459515704], [110.7490006671978, -6.88183836455627], [110.74898717850985, -6.881985791266998], [110.74898421968209, -6.882147583934448], [110.74897454918586, -6.882320861426003], [110.74894367758114, -6.882734425708618], [110.74892727776874, -6.882952695686362], [110.74891859737203, -6.883064702508438], [110.74889552207783, -6.883225527245796], [110.74883502031312, -6.883512704138704], [110.74879466461705, -6.883744364592999], [110.74877252755583, -6.883942526934118], [110.74876384155822, -6.884065064727573], [110.74876092793099, -6.8841406948070105], [110.74876561044118, -6.8843446154033705], [110.74876745434311, -6.884481519157629], [110.74875194936887, -6.884819459843845], [110.74873072283614, -6.885107614688351], [110.74869994444315, -6.885343109593055], [110.74866056508918, -6.885539348126389], [110.74862982844759, -6.885695381989779], [110.74858473053592, -6.885836090505931], [110.74854732949873, -6.885913617167487], [110.74840444654416, -6.886194049090979], [110.74832964787112, -6.8863424008434615], [110.7482759145805, -6.886508953550558], [110.74816072717908, -6.886950236777986], [110.74813001248664, -6.88706414667518], [110.74800566407808, -6.887619351091903], [110.74797446539421, -6.887742594996915], [110.74795047917544, -6.887813187794585], [110.74792050950171, -6.8878765972210445], [110.74785219494584, -6.887990247922856], [110.74763166716541, -6.888363502696222], [110.74732484980943, -6.888874332510577], [110.74711271666243, -6.889222460691137], [110.74686105078992, -6.889601682082868], [110.74642122992472, -6.890271602152174], [110.74606770799062, -6.890784799645653], [110.74569862090786, -6.891293201747205], [110.74538705567528, -6.891717865041453], [110.74501676775166, -6.892229856010073], [110.7447525137349, -6.892630610041501]]}, "type": "Feature", "id": 15, "properties": {"Panjang": 3.45072498222, "Name": "119.Jalan Wonoketingal - Banjarsari", "koordY": 6866996.0, "koordX": 110758493.0, "OK_TOK": "OK", "Skor_kerus": 0.0, "Jenis_keru": "tidak rusak", "Lenth": 3450.72498222, "No_Ruas": 119}},{"geometry": {"type": "LineString", "coordinates": [[110.71935022031691, -6.910802731987556], [110.71967965287313, -6.9110068433459375], [110.71989224374859, -6.911152486919192], [110.7201821443959, -6.911351340255996], [110.72053767107572, -6.911606654045973], [110.72072632419062, -6.911732178685152], [110.72099830244129, -6.911894131696524], [110.7214091551181, -6.912118394121593], [110.72176590220147, -6.912282910448428], [110.72210350840098, -6.9124464067924904], [110.72263322105391, -6.912688316258744], [110.72303252634838, -6.912887142644483], [110.72331409672948, -6.913030910137506], [110.72366655035658, -6.913190993700927], [110.72399984852329, -6.91334340703979], [110.72446987050016, -6.913551186753124], [110.72456683900609, -6.913602700891113], [110.72460979248692, -6.913628493970325], [110.72494789147312, -6.913180486345443], [110.72527674598084, -6.9128012570936175], [110.7256738498082, -6.91230109181055], [110.72587518569335, -6.912032668417123], [110.72609237719816, -6.911679527740184], [110.72628804798816, -6.911266060942896], [110.72647076227828, -6.910892795702829], [110.72669519719487, -6.910436264034561], [110.72697862698783, -6.909843342310162], [110.7272318338044, -6.909329385240631], [110.72741743454232, -6.908931708532891], [110.72759438503614, -6.908582852130064], [110.7277037372973, -6.908337351874067], [110.72773395611311, -6.908264131125315], [110.72776272067699, -6.908221066371518], [110.72779865625655, -6.908202418381145], [110.72787050606358, -6.90820245940529], [110.72808745393073, -6.908270077065438], [110.72870524699034, -6.90847291065634], [110.72941355758533, -6.908700207533189], [110.72985103948665, -6.908848367772995], [110.73028852167415, -6.90899652762091], [110.73111320489404, -6.909269841139477], [110.7317460899907, -6.909471243354127], [110.73237897565215, -6.90967264474727], [110.73285453476754, -6.909830157934054], [110.73333009421397, -6.909987670657345], [110.73418621121067, -6.910269125272472], [110.73502193517282, -6.910543683785019], [110.73545641373653, -6.910681949805444], [110.73589089256627, -6.910820215438508], [110.73631995425606, -6.9109672777818725], [110.7367833055243, -6.911117600179504], [110.73724665710057, -6.911267922136674], [110.73799951331696, -6.911513899625639], [110.73869058688784, -6.911745481664549], [110.73913095468912, -6.911882864858974], [110.73957132275852, -6.912020247655101], [110.7404161454218, -6.9122748879155145], [110.74116468853734, -6.912530910446255], [110.7419951312567, -6.91280708076348], [110.74247500843715, -6.9129638688803805], [110.74295488594994, -6.913120656524542], [110.74343404528838, -6.913277443308906], [110.74391320495859, -6.913434229621877], [110.744403857217, -6.913598201835453], [110.7448945098302, -6.913762173554893], [110.745505135149, -6.913960673886532], [110.74611576100311, -6.914159173452293], [110.74674985798913, -6.914358961214286], [110.7473839555356, -6.914558748149754], [110.74801805364245, -6.91475853425859], [110.74881905798996, -6.915011461355827], [110.74962006323337, -6.915264387133792], [110.7502123371738, -6.915450585774227], [110.75080461160194, -6.9156367836931985], [110.75139688651771, -6.915822980890613], [110.75196921035005, -6.915995604358114], [110.75273789416406, -6.916232951041354], [110.75329944010826, -6.9164079607468425], [110.7538609864871, -6.916582969803408], [110.7543671552261, -6.916743888399529], [110.75487332432483, -6.916904806468493], [110.75550341758671, -6.917104082122222], [110.7561335114032, -6.917303356958901], [110.75670342878414, -6.917477009795721], [110.75727189865353, -6.917650902484779], [110.75774856166188, -6.917790561054558], [110.75818470197842, -6.917927781234416], [110.75855736218513, -6.918040603978234]]}, "type": "Feature", "id": 16, "properties": {"Panjang": 4.92978796079, "Name": "11.Jalan Gedangalas - Tanjunganyar", "koordY": 6.916686, "koordX": 110.754136, "OK_TOK": "OK", "Skor_kerus": 8420.0, "Jenis_keru": "satisfactory", "Lenth": 4929.78796079, "No_Ruas": 11}},{"geometry": {"type": "LineString", "coordinates": [[110.72779686800112, -6.908174333480368], [110.72792784720976, -6.907802474036746], [110.72806886875605, -6.907459341062205], [110.72838112081259, -6.906715650577323], [110.72866460833642, -6.906013588610074], [110.72886821341301, -6.905537657266391], [110.72907181806745, -6.905061725810426], [110.72933513104775, -6.904455866527488], [110.72953224670422, -6.9040179861924065], [110.72962721886252, -6.903786837614302], [110.72970637678574, -6.90356860440973], [110.72986039937611, -6.903100542635991], [110.73003169144253, -6.902586537284211], [110.73016266640967, -6.9022161130515975], [110.73023175601445, -6.902013670472483], [110.73037993780734, -6.901707877693664], [110.73055829346299, -6.9014064100186125], [110.73073662860233, -6.901140843257928], [110.7308488343299, -6.900925500531533], [110.73095242378506, -6.900700100633201], [110.73099991606509, -6.900572319825301], [110.7310732868001, -6.900421576951161], [110.73114810661126, -6.900249294274931], [110.731199934004, -6.900078434673772], [110.73133665924139, -6.899700833055975], [110.73148635338329, -6.899258616863457], [110.73161731651795, -6.898905424580547], [110.73178137737293, -6.898467524460365], [110.73185333316543, -6.898276571502319], [110.73193534120087, -6.898097112498878], [110.73208641955269, -6.89774680342137], [110.73235979600203, -6.897117970980616], [110.73259724444866, -6.896494862382145], [110.7327224733848, -6.896114381710013], [110.7327642369712, -6.895950696441481], [110.73282033230686, -6.8958545131017965], [110.73282612278402, -6.895778406181601], [110.7329542429356, -6.895366334143247], [110.733089561299, -6.894929853383882], [110.73330401472244, -6.894309603530257], [110.73339614838252, -6.894008086374644], [110.7334839806876, -6.893689334301541], [110.73362220160772, -6.8931997214265985], [110.73378199410622, -6.892678527609437], [110.73386839773886, -6.892343978180936], [110.73392449881104, -6.892236306347076], [110.7339893032057, -6.891982163157373], [110.73413037454172, -6.89153276080176], [110.73428943179985, -6.891039569131065], [110.73444848871168, -6.8905463773846805], [110.73470467895665, -6.889801214241413], [110.73490761787579, -6.889206805722593], [110.73502132423226, -6.888867963000946], [110.73523579524615, -6.888206066732475]]}, "type": "Feature", "id": 17, "properties": {"Panjang": 2.36059732264, "Name": "125.Jalan Gedangalas - Banjarsari", "koordY": 6907330.0, "koordX": 110728122.0, "OK_TOK": "OK", "Skor_kerus": 0.0, "Jenis_keru": "tidak rusak", "Lenth": 2360.59732264, "No_Ruas": 125}},{"geometry": {"type": "LineString", "coordinates": [[110.71930292154926, -6.910752664476677], [110.71860148028902, -6.910253227476029], [110.71791321443673, -6.909751403893119], [110.71740568277897, -6.909400470566243], [110.71688258298614, -6.909051920873008], [110.71626853270223, -6.908605187233249], [110.71590587192712, -6.9083022065349216], [110.71584363357593, -6.908249514709532], [110.71578737199913, -6.908214776915173], [110.71571913619046, -6.908178835275003], [110.71563772293919, -6.908151262652863], [110.71555871898934, -6.908099757488408], [110.71545579734234, -6.907994386610786], [110.71512908243531, -6.907657919255652], [110.71498907234117, -6.9074962812989105], [110.71463370291372, -6.907018586096202], [110.71425680735646, -6.906494206515069], [110.71396005313743, -6.906121855419869], [110.7136369607334, -6.905739316401319], [110.71331386884479, -6.905356777179108], [110.71323252324045, -6.905217911273884], [110.7131045225308, -6.905001231905669], [110.712938274489, -6.904664859662965], [110.71275289866121, -6.90427582112539], [110.71258905979305, -6.903916712955857], [110.71249823660094, -6.903609106774369], [110.71245281457188, -6.903472655795572], [110.71240137047369, -6.903393642697217], [110.7122721087966, -6.903283468506565], [110.71207459790878, -6.903161286110146], [110.71166159393584, -6.902950417762643], [110.71114324898613, -6.902678453691348], [110.71088228959593, -6.902527511643032], [110.71074821897571, -6.902449644994049], [110.71061772412375, -6.902399304534259], [110.71046687068149, -6.902351345080707], [110.71034195603573, -6.902314321200234], [110.71027609535406, -6.902313084509585], [110.71024495068086, -6.902329819367353], [110.71020899861553, -6.902375272056195], [110.70998846410158, -6.902700639906254], [110.70971035097776, -6.903188723525763], [110.70951851446215, -6.903581123666381], [110.70932789920302, -6.903934033424327], [110.70905219862215, -6.904391003903996], [110.70876809826534, -6.904875493113288], [110.70863862843412, -6.905106376699561]]}, "type": "Feature", "id": 18, "properties": {"Panjang": 1.764303977, "Name": "117.Jalan Gedangalas - Tlogopandogan", "koordY": 6910227.0, "koordX": 110718565.0, "OK_TOK": "OK", "Skor_kerus": 0.0, "Jenis_keru": "tidak rusak", "Lenth": 1764.303977, "No_Ruas": 117}},{"geometry": {"type": "MultiLineString", "coordinates": [[[110.79577716106432, -6.892559197733966], [110.79572787003484, -6.892657804229541]], [[110.79563080620964, -6.8928519798607955], [110.79541518063564, -6.8932833369349], [110.79503769695769, -6.8939398675193555], [110.79466021222278, -6.894596397756798], [110.79423628897067, -6.895335181166725], [110.79381236438239, -6.8960739641386], [110.79342788770964, -6.896737969635891], [110.79304340994773, -6.897401974773264], [110.79265893109655, -6.898065979550661], [110.79220953491296, -6.898851122144991], [110.79176013722288, -6.899636264246131], [110.79138268456006, -6.9001985509367945], [110.79114605988323, -6.900476681430707], [110.79066083616806, -6.9010299450158605], [110.79038226117095, -6.90139332193829], [110.79010368574549, -6.901756698679711], [110.78978911136478, -6.902287598102092], [110.78947453627134, -6.902818497284062], [110.78919590171452, -6.903312015077589], [110.78891726656975, -6.903805532680651], [110.78855375356525, -6.904422671983358], [110.78819023960283, -6.905039810964401], [110.78782672468235, -6.905656949623702], [110.78751913294818, -6.906182365519387], [110.78721154052356, -6.906707781184356], [110.78690394740838, -6.907233196618533], [110.78648299560061, -6.907968981625187], [110.78606204246803, -6.908704766197472], [110.78567105392895, -6.909377736826833], [110.78528006426471, -6.910050707082382], [110.78494600446571, -6.910614503387845], [110.78461194386169, -6.911178299421313], [110.78432431582944, -6.911676297470159], [110.7840366871843, -6.912174295316308], [110.78375955112418, -6.9126393883581825], [110.78348241451303, -6.913104481212913], [110.78306295984466, -6.913816329297435], [110.78264350389904, -6.914528176952192], [110.78238285284611, -6.914945408428992], [110.78212220132883, -6.9153626397415335], [110.78190648999225, -6.9157065933632484], [110.78172669986041, -6.916059538619931], [110.78153635965411, -6.916568050450175], [110.78134601902596, -6.917076562180733], [110.78114368275239, -6.917628448807049], [110.78094134599155, -6.918180335319851], [110.78073300799161, -6.91876064066608], [110.78052466946349, -6.9193409458909665], [110.7802758708534, -6.920013976839624], [110.78002707151256, -6.92068700761697], [110.77976776527778, -6.921419868531419], [110.77950845821172, -6.922152729256759], [110.77927463623503, -6.922803328266472], [110.77904081359324, -6.923453927123215], [110.77874252904944, -6.924304943630044], [110.77844424339408, -6.925155959885465], [110.77818943616033, -6.925860400047979], [110.77793462814157, -6.926564840029072], [110.77765131430016, -6.927361671911064], [110.77736799947031, -6.92815850356724], [110.77708468365182, -6.928955334997538], [110.77685894765239, -6.92957164296306], [110.7766332110444, -6.930187950786675]]]}, "type": "Feature", "id": 19, "properties": {"Panjang": 4.66571606369, "Name": "33.Jalan Karanganyar - Merak", "koordY": 6.907083, "koordX": 110.786994, "OK_TOK": "OK", "Skor_kerus": 6611.0, "Jenis_keru": "fair", "Lenth": 4665.71606369, "No_Ruas": 33}},{"geometry": {"type": "LineString", "coordinates": [[110.76413529292837, -6.9034659409111], [110.7636535776733, -6.903155277703851], [110.76315437891871, -6.902846280731219], [110.76281439281539, -6.9026450657077705], [110.76271622458584, -6.9025935586609215], [110.76249235019765, -6.902482153878543], [110.76219663217216, -6.902359942861114], [110.7618410574021, -6.9022029974030215], [110.76122689759742, -6.901903514697205], [110.76056005172705, -6.901599217974415], [110.7601661815347, -6.901396777373866], [110.7596574113403, -6.901079395127559], [110.75926642125422, -6.900866424273855], [110.75916011902551, -6.900798876596173], [110.759102673324, -6.900732789606091], [110.75904668349308, -6.9006293662183795], [110.75903234349538, -6.900570481201171], [110.75902876593915, -6.900541040506524], [110.75903811572586, -6.900522376664634], [110.75906615382853, -6.900488643803702], [110.75908988716864, -6.900442702399318], [110.75910356747818, -6.900385267572106], [110.75910575923541, -6.9003134665114745], [110.75907204547488, -6.900204310197485], [110.75888158180845, -6.89973977365086], [110.75865193075006, -6.899216698450476], [110.75832890376442, -6.898640920953903], [110.75803938313157, -6.898111831645682], [110.75796044582346, -6.8979227125849185], [110.75793773999894, -6.8978317516585275], [110.75794019388157, -6.897715672730001], [110.75795944032943, -6.897544553985184], [110.75801105252899, -6.897306436285625], [110.75807581318112, -6.897114996650631], [110.75816940473548, -6.896742869473075], [110.75820300491769, -6.896602872252444], [110.75820302797673, -6.896557397554135], [110.75819107511927, -6.896514310196527], [110.75815516557749, -6.8964855711395225], [110.7580545975111, -6.89644722569704], [110.75741886813921, -6.896196792240171], [110.75730632489557, -6.896159637262641], [110.75675793829217, -6.896052851669737], [110.75628257308135, -6.895993970841143], [110.75585510736123, -6.895933917333608], [110.75564916544978, -6.895889533992036], [110.75535822604121, -6.895800829024488], [110.75455006373656, -6.8955503034503485], [110.75389755510498, -6.8953345611515005], [110.75380776608884, -6.895293826982689], [110.75373474780149, -6.895241134420479], [110.75365336828034, -6.895147749647076], [110.75358397952782, -6.895023256780988], [110.75354452869237, -6.8948963859509105], [110.75352543664502, -6.8947659355172535], [110.75353387888468, -6.894649859723638], [110.75356867462057, -6.894515846988931], [110.75374488173372, -6.894167697413551], [110.7540756982816, -6.893553959392235], [110.75440651395837, -6.892940221095919], [110.7544904279797, -6.892761955518527], [110.75430247659615, -6.892664925966808], [110.75377931924695, -6.892407365533788], [110.75317236140448, -6.892109073366924], [110.7526527889979, -6.891868267426195], [110.75199793864574, -6.891561572095792], [110.75152267522847, -6.891317197850334], [110.75133831492354, -6.891224955845512], [110.75105221649221, -6.8910453014915705], [110.75063326294459, -6.890746505759346], [110.75021430992804, -6.890447709674968], [110.7501339888104, -6.890394055412498], [110.7500360509724, -6.89036743739907], [110.74993407979795, -6.890268297084932], [110.74982493448223, -6.890149048392848], [110.74979190207897, -6.890116002111096], [110.74974879526059, -6.890113107454222], [110.74968555992848, -6.890131742895492], [110.74954751834142, -6.890312611982594], [110.7495302734977, -6.8903154750303655], [110.74945700439392, -6.89028671576427], [110.74917257313058, -6.890127165797805], [110.7487674644993, -6.889918726786144], [110.74844439073964, -6.889747348359284], [110.7479931117106, -6.889525106636573], [110.74762247933948, -6.889338225504443], [110.74719534786875, -6.8891130197402815]]}, "type": "Feature", "id": 20, "properties": {"Panjang": 2.88773160337, "Name": "121.Jalan Tambirejo - Banjarsari", "koordY": 6902980.0, "koordX": 110763371.0, "OK_TOK": "OK", "Skor_kerus": 0.0, "Jenis_keru": "tidak rusak", "Lenth": 2887.73160337, "No_Ruas": 121}},{"geometry": {"type": "LineString", "coordinates": [[110.7321494880001, -6.881321267999959], [110.73253202571271, -6.881625447148185], [110.73256994673508, -6.881671985360362], [110.73261231588194, -6.881770599600956], [110.73291765820065, -6.882475175436811], [110.73322300138723, -6.883179751091854], [110.7334631617974, -6.883761282348956], [110.7337033227696, -6.884342813493902], [110.73394348430392, -6.884924344526629], [110.7341706769045, -6.885500881982515], [110.73439787003097, -6.8860774193376555], [110.73462506368342, -6.886653956592025], [110.73491504011594, -6.887381113467782], [110.73520501739597, -6.888108270179381], [110.73527083551157, -6.888183100460951], [110.73602796451024, -6.888647240908572], [110.73678362211697, -6.8890679989692964], [110.73753928108714, -6.8894887558785305], [110.73823368863091, -6.889784171482438], [110.73892809706547, -6.890079586106176], [110.73962250639077, -6.890374999749644], [110.74031691660676, -6.890670412412681], [110.7410113277134, -6.890965824095185], [110.74133216516442, -6.891114388887378], [110.7420408568184, -6.891488142939833], [110.7425388862522, -6.891696637662692], [110.74303691613711, -6.8919051318807645], [110.74377677384823, -6.892223851915561], [110.74451663258226, -6.892542570836868], [110.74478000444242, -6.892671955416466], [110.74551018149384, -6.8931845333852335], [110.74624036013506, -6.893697110284474], [110.74687476551505, -6.894167750795048], [110.74750917216072, -6.894638390499396], [110.74814358007215, -6.895109029397325], [110.74877798924938, -6.895579667488697], [110.7493701048688, -6.8960203650216165], [110.74996222159443, -6.896461061851686], [110.75055433942632, -6.896901757978795], [110.75123901788982, -6.897428664203093], [110.75192369788098, -6.8979555694880785], [110.7522636435014, -6.898219020535307], [110.75271605776778, -6.898664428381256], [110.75316847288006, -6.899109835820238], [110.75369749647872, -6.899615117511495], [110.75422652120085, -6.900120398645481], [110.7547555470465, -6.900625679222033], [110.75528457401577, -6.901130959241036], [110.7556508143901, -6.901499731284122], [110.75601705533114, -6.901868503060326], [110.75643356182277, -6.9022947419525265], [110.75692829176923, -6.902746550016362], [110.75742302265698, -6.9031983575914095], [110.75791775448613, -6.903650164677599], [110.75845405564672, -6.90399269349618], [110.75899035759106, -6.90433522173364], [110.75975174394063, -6.9047664188249644], [110.76051313169742, -6.905197614740609], [110.76127452086143, -6.905628809480343], [110.76184989779776, -6.905943239325983], [110.76242527551065, -6.9062576684992045], [110.76300065400008, -6.906572096999951]]}, "type": "Feature", "id": 21, "properties": {"Panjang": 4.54800466962, "Name": "28.Jalan Boyolali - Tambirejo", "koordY": 6.900369, "koordX": 110.754425, "OK_TOK": "OK", "Skor_kerus": 7140.0, "Jenis_keru": "rusatisfactory", "Lenth": 4548.00466962, "No_Ruas": 28}}]}